eventid,iyear,imonth,iday,approxdate,extended,resolution,country,country_txt,region,region_txt,provstate,city,latitude,longitude,specificity,vicinity,location,summary,crit1,crit2,crit3,doubtterr,alternative,alternative_txt,multiple,success,suicide,attacktype1,attacktype1_txt,attacktype2,attacktype2_txt,attacktype3,attacktype3_txt,targtype1,targtype1_txt,targsubtype1,targsubtype1_txt,corp1,target1,natlty1,natlty1_txt,targtype2,targtype2_txt,targsubtype2,targsubtype2_txt,corp2,target2,natlty2,natlty2_txt,targtype3,targtype3_txt,targsubtype3,targsubtype3_txt,corp3,target3,natlty3,natlty3_txt,gname,gsubname,gname2,gsubname2,gname3,gsubname3,motive,guncertain1,guncertain2,guncertain3,individual,nperps,nperpcap,claimed,claimmode,claimmode_txt,claim2,claimmode2,claimmode2_txt,claim3,claimmode3,claimmode3_txt,compclaim,weaptype1,weaptype1_txt,weapsubtype1,weapsubtype1_txt,weaptype2,weaptype2_txt,weapsubtype2,weapsubtype2_txt,weaptype3,weaptype3_txt,weapsubtype3,weapsubtype3_txt,weaptype4,weaptype4_txt,weapsubtype4,weapsubtype4_txt,weapdetail,nkill,nkillus,nkillter,nwound,nwoundus,nwoundte,property,propextent,propextent_txt,propvalue,propcomment,ishostkid,nhostkid,nhostkidus,nhours,ndays,divert,kidhijcountry,ransom,ransomamt,ransomamtus,ransompaid,ransompaidus,ransomnote,hostkidoutcome,hostkidoutcome_txt,nreleased,addnotes,scite1,scite2,scite3,dbsource,INT_LOG,INT_IDEO,INT_MISC,INT_ANY,related
197602210004,1976,2,21,,0,,217,United States,1,North America,California,San Francisco,37.755363,-122.443352,1.0,0,,,1,1,1,0,,,0,1,0,7,Facility/Infrastructure Attack,,,,,21,Utilities,107.0,Electricity,,11 power poles of Pacific Gas & Electric,217.0,United States,,,,,,,,,,,,,,,,,New World Liberation Front (NWLF),,,,,,,0.0,,,0,,,,,,,,,,,,,9,Melee,23.0,Knife or Other Sharp Object,,,,,,,,,,,,,Saw,0.0,,,0.0,,,1,,,,,0.0,,,,,,,0.0,,,,,,,,,,,,,PGIS,0,0,0,0,
197803270005,1978,3,27,,0,,101,Japan,4,East Asia,Chiba,Narita,35.772163,140.321777,1.0,0,,,1,1,1,-9,,,0,1,0,7,Facility/Infrastructure Attack,,,,,6,Airports & Aircraft,44.0,Airport,,New Tokyo International Airport,101.0,Japan,,,,,,,,,,,,,,,,,Unknown,,,,,,,0.0,,,0,,,,,,,,,,,,,9,Melee,21.0,Blunt Object,8.0,Incendiary,19.0,Molotov Cocktail/Petrol Bomb,12.0,Other,,,,,,,Rocks; Molotov cocktail; Slingshots; Bows,,,,,,,1,4.0,Unknown,,,0.0,,,,,,,0.0,,,,,,,,,,,,,PGIS,-9,-9,0,-9,
197805210001,1978,5,21,,0,,101,Japan,4,East Asia,Chiba,Narita,35.772163,140.321777,1.0,0,,,1,1,1,-9,,,0,1,0,7,Facility/Infrastructure Attack,,,,,21,Utilities,107.0,Electricity,,"New Tokyo International Airport, steel tower carrying power lines",101.0,Japan,,,,,,,,,,,,,,,,,Unknown,,,,,,,0.0,,,0,,,,,,,,,,,,,9,Melee,23.0,Knife or Other Sharp Object,,,,,,,,,,,,,Cut,0.0,,,0.0,,,1,3.0,Minor (likely < $1 million),70000.0,"Damages: damaged and cut down electrical tower, caused electrical outage, estimated at $70,000 (airport)",0.0,,,,,,,0.0,,,,,,,,,,,,,PGIS,-9,-9,0,-9,
197901120003,1979,1,12,,0,,45,Colombia,3,South America,Santander,Barrancabermeja,7.060051,-73.853115,1.0,0,,,1,1,1,-9,,,0,1,0,7,Facility/Infrastructure Attack,,,,,21,Utilities,108.0,Oil,,oil pipeline,45.0,Colombia,,,,,,,,,,,,,,,,,Unknown,,,,,,,0.0,,,0,,,,,,,,,,,,,9,Melee,23.0,Knife or Other Sharp Object,,,,,,,,,,,,,Saw,0.0,,,0.0,,,1,4.0,Unknown,,,0.0,,,,,,,0.0,,,,,,,,,,,,,PGIS,-9,-9,0,-9,
198106230008,1981,6,23,,0,,362,West Germany (FRG),8,Western Europe,Hamburg,Hamburg,53.553813,9.991586,1.0,0,,,1,1,1,0,,,0,1,0,7,Facility/Infrastructure Attack,,,,,7,Government (Diplomatic),46.0,Embassy/Consulate,,Iranian Consulate,94.0,Iran,,,,,,,,,,,,,,,,,Mujahedin-e Khalq (MEK),,,,,,,0.0,,,0,30.0,,,,,,,,,,,,9,Melee,27.0,Unknown Weapon Type,,,,,,,,,,,,,Smashed windows,0.0,,,0.0,,,1,4.0,Unknown,,,0.0,,,,,,,0.0,,,,,,,,,,,,,PGIS,1,1,1,1,
198201220005,1982,1,22,,0,,159,Peru,3,South America,Lima,Lima,-11.967368,-76.978462,1.0,0,,,1,1,1,0,,,0,1,0,7,Facility/Infrastructure Attack,,,,,2,Government (General),21.0,Government Building/Facility/Office,,Municipal building,159.0,Peru,,,,,,,,,,,,,,,,,Unknown,,,,,,,0.0,,,0,60.0,,,,,,,,,,,,9,Melee,21.0,Blunt Object,9.0,Melee,21.0,Blunt Object,8.0,Incendiary,19.0,Molotov Cocktail/Petrol Bomb,,,,,Sticks; Stones; Molotov cocktail,,,,,,,1,,,,,0.0,,,,,,,0.0,,,,,,,,,,,,,PGIS,-9,-9,0,-9,
198203260011,1982,3,26,,0,,159,Peru,3,South America,Lima,Lima,-11.967368,-76.978462,1.0,0,,,1,1,1,-9,,,0,1,0,7,Facility/Infrastructure Attack,,,,,14,Private Citizens & Property,74.0,Marketplace/Plaza/Square,,commercial center,159.0,Peru,,,,,,,,,,,,,,,,,Unknown,,,,,,,0.0,,,0,20.0,,,,,,,,,,,,9,Melee,21.0,Blunt Object,8.0,Incendiary,,,,,,,,,,,Rocks; Incendiary bombs; Robbery; Vandalism,0.0,,,1.0,,,1,,,,,0.0,,,,,,,0.0,,,,,,,,,,,,,PGIS,-9,-9,0,-9,
198206000006,1982,6,0,,0,,137,Mozambique,11,Sub-Saharan Africa,Unknown,Unknown,,,5.0,0,,,1,1,1,-9,,,0,1,0,7,Facility/Infrastructure Attack,,,,,19,Transportation,104.0,Highway/Road/Toll/Traffic Signal,,Major highway between Malawi and Zimbabwe,137.0,Mozambique,,,,,,,,,,,,,,,,,Unknown,,,,,,,0.0,,,0,,,,,,,,,,,,,9,Melee,23.0,Knife or Other Sharp Object,,,,,,,,,,,,,Cut,,,,,,,1,4.0,Unknown,,,0.0,,,,,,,0.0,,,,,,,,,,,,,PGIS,-9,-9,0,-9,
198311130008,1983,11,13,,0,,45,Colombia,3,South America,Antioquia,Oro,6.57223,-76.13663,2.0,0,,,1,1,1,0,,,0,1,0,7,Facility/Infrastructure Attack,,,,,1,Business,,,,Unknown number of Stores,45.0,Colombia,,,,,,,,,,,,,,,,,Shining Path (SL),,,,,,,0.0,,,0,,,,,,,,,,,,,9,Melee,27.0,Unknown Weapon Type,,,,,,,,,,,,,Looted,,,,,,,1,,,,,0.0,,,,,,,0.0,,,,,,,,,,,,,PGIS,1,1,0,1,
198403090002,1984,3,9,,0,,43,Chile,3,South America,Bio Bio,Concepcion,-36.816006,-73.037659,1.0,0,,,1,1,1,-9,,,0,1,0,7,Facility/Infrastructure Attack,,,,,21,Utilities,107.0,Electricity,,Power Facilities,43.0,Chile,,,,,,,,,,,,,,,,,Unknown,,,,,,,0.0,,,0,,,,,,,,,,,,,9,Melee,21.0,Blunt Object,,,,,,,,,,,,,Chains,0.0,,,0.0,,,1,,,,,0.0,,,,,,,0.0,,,,,,,,,,,,,PGIS,-9,-9,0,-9,
198403090003,1984,3,9,,0,,43,Chile,3,South America,Bio Bio,Concepcion,-36.816006,-73.037659,1.0,0,,,1,1,1,-9,,,0,1,0,7,Facility/Infrastructure Attack,,,,,21,Utilities,107.0,Electricity,,Powerlines,43.0,Chile,,,,,,,,,,,,,,,,,Unknown,,,,,,,0.0,,,0,,,,,,,,,,,,,9,Melee,21.0,Blunt Object,,,,,,,,,,,,,Chains,0.0,,,0.0,,,1,,,,,0.0,,,,,,,0.0,,,,,,,,,,,,,PGIS,-9,-9,0,-9,
198403090004,1984,3,9,,0,,43,Chile,3,South America,Bio Bio,Concepcion,-36.816006,-73.037659,1.0,0,,,1,1,1,-9,,,0,1,0,7,Facility/Infrastructure Attack,,,,,21,Utilities,107.0,Electricity,,Power lines,43.0,Chile,,,,,,,,,,,,,,,,,Unknown,,,,,,,0.0,,,0,,,,,,,,,,,,,9,Melee,21.0,Blunt Object,,,,,,,,,,,,,Chains,0.0,,,0.0,,,1,,,,,0.0,,,,,,,0.0,,,,,,,,,,,,,PGIS,-9,-9,0,-9,
198403090005,1984,3,9,,0,,43,Chile,3,South America,Bio Bio,Concepcion,-36.816006,-73.037659,1.0,0,,,1,1,1,-9,,,0,1,0,7,Facility/Infrastructure Attack,,,,,21,Utilities,107.0,Electricity,,Power lines,43.0,Chile,,,,,,,,,,,,,,,,,Unknown,,,,,,,0.0,,,0,,,,,,,,,,,,,9,Melee,21.0,Blunt Object,,,,,,,,,,,,,Chains,0.0,,,0.0,,,1,,,,,0.0,,,,,,,0.0,,,,,,,,,,,,,PGIS,-9,-9,0,-9,
198408170014,1984,8,17,,0,,159,Peru,3,South America,Unknown,Toya,,,5.0,0,,,1,1,1,-9,,,0,1,0,7,Facility/Infrastructure Attack,,,,,15,Religious Figures/Institutions,87.0,Affiliated Institution,,farm owned by Oblate Sisters Congregation,159.0,Peru,,,,,,,,,,,,,,,,,Unknown,,,,,,,0.0,,,0,,,,,,,,,,,,,9,Melee,27.0,Unknown Weapon Type,8.0,Incendiary,18.0,Arson/Fire,,,,,,,,,Looted; Burned farms,0.0,,,0.0,,,1,,,,,0.0,,,,,,,0.0,,,,,,,,,,,,,PGIS,-9,-9,0,-9,
198410040019,1984,10,4,,0,,43,Chile,3,South America,Santiago Metropolitan,Santiago,-33.366238,-70.505302,1.0,0,,,1,1,1,-9,,,0,1,0,7,Facility/Infrastructure Attack,,,,,21,Utilities,107.0,Electricity,,Power lines,43.0,Chile,,,,,,,,,,,,,,,,,Unknown,,,,,,,0.0,,,0,,,,,,,,,,,,,9,Melee,23.0,Knife or Other Sharp Object,,,,,,,,,,,,,Barbed wire,0.0,,,0.0,,,1,,,,"Damages: 4 meters of barbed wire thrown onto electrical lines, caused electrical outage",0.0,,,,,,,0.0,,,,,,,,,,,,,PGIS,-9,-9,0,-9,
198608020007,1986,8,2,,0,,11,Argentina,3,South America,Buenos Aires,Mar del Plata,-37.997567,-57.54823,1.0,0,,,1,1,1,-9,,,0,1,0,7,Facility/Infrastructure Attack,,,,,16,Telecommunication,89.0,Television,Tandil TV channel 10,repeater station,11.0,Argentina,,,,,,,,,,,,,,,,,Unknown,,,,,,,0.0,,,0,,,,,,,,,,,,,9,Melee,21.0,Blunt Object,9.0,Melee,21.0,Blunt Object,5.0,Firearms,5.0,Unknown Gun Type,,,,,Stones; Metal object; Firearm,0.0,,,0.0,,,1,,,,,0.0,,,,,,,0.0,,,,,,,,,,,,,PGIS,-9,-9,0,-9,
198905140006,1989,5,14,,0,,104,Kenya,11,Sub-Saharan Africa,Rift Valley,Eldoret,0.515982,35.27999,1.0,1,,,1,1,1,0,,,0,1,0,7,Facility/Infrastructure Attack,,,,,19,Transportation,100.0,Train/Train Tracks/Trolley,Railway,Railway Line,104.0,Kenya,,,,,,,,,,,,,,,,,Mwakenya Dissident Movement,,,,,,,0.0,,,0,,,,,,,,,,,,,9,Melee,21.0,Blunt Object,,,,,,,,,,,,,Boulders,0.0,,,0.0,,,1,,,,,0.0,,,,,,,0.0,,,,,,,,,,,,,PGIS,0,0,0,0,
198911150015,1989,11,15,,0,,160,Philippines,5,Southeast Asia,Maguindanao,Buluan,6.860662,124.44733,4.0,0,,,1,1,1,0,,,0,1,0,7,Facility/Infrastructure Attack,,,,,21,Utilities,107.0,Electricity,Electrical Co.,High tension line tower,160.0,Philippines,,,,,,,,,,,,,,,,,Moro National Liberation Front (MNLF),,,,,,,0.0,,,0,,,,,,,,,,,,,9,Melee,23.0,Knife or Other Sharp Object,,,,,,,,,,,,,Saw,0.0,,,0.0,,,1,3.0,Minor (likely < $1 million),50000.0,,0.0,,,,,,,0.0,,,,,,,,,,,,,PGIS,0,0,0,0,
199105310012,1991,5,31,,0,,75,Germany,8,Western Europe,Saxony,Pirna,50.957895,13.937399,1.0,0,,,1,1,1,-9,,,0,0,0,7,Facility/Infrastructure Attack,,,,,14,Private Citizens & Property,76.0,House/Apartment/Residence,Govt,Residence for Foreign Asylum Seekers,75.0,Germany,,,,,,,,,,,,,,,,,Neo-Nazi extremists,,,,,,,0.0,,,0,,,,,,,,,,,,,9,Melee,21.0,Blunt Object,,,,,,,,,,,,,Stone,0.0,,,0.0,,,1,,,,,0.0,,,,,,,0.0,,,,,,,,,,,,,PGIS,-9,-9,0,-9,
199107120014,1991,7,12,,0,,142,Netherlands,8,Western Europe,Overijssel,Deventer,52.26008,6.164839,1.0,0,,,1,1,1,-9,,,0,1,0,7,Facility/Infrastructure Attack,,,,,7,Government (Diplomatic),46.0,Embassy/Consulate,Turkey State Dept.,Turkish Consulate,209.0,Turkey,,,,,,,,,,,,,,,,,Kurdish Dissidents,,,,,,,0.0,,,0,70.0,,,,,,,,,,,,9,Melee,21.0,Blunt Object,,,,,,,,,,,,,Rocks,0.0,,,0.0,,,1,,,,,0.0,,,,,,,0.0,,,,,,,,,,,,,PGIS,-9,-9,1,1,
199109140010,1991,9,14,,0,,217,United States,1,North America,Illinois,Aurora,41.760538,-88.320233,1.0,0,,"9/14/1991: Unknown perpetrators broke into the office of Dr. Aleksandr Jakubowski in Aurora, Illinois, United States, and broke around $187,500 worth of medical equipment.  The perpetrators also spray-painted multiple anti-abortion slogans throughout the facility.",1,1,1,0,,,0,1,0,7,Facility/Infrastructure Attack,,,,,5,Abortion Related,40.0,Clinics,Physician who performed abortions,Office of Dr. Aleksandr Jakubowski,217.0,United States,,,,,,,,,,,,,,,,,Anti-Abortion extremists,,,,,,"To protest the practice of abortion and to sabotage abortion facilities operating in Illinois.  Specifically, facilities that perform abortions in the second-trimester of a pregnancy.",0.0,,,0,-99.0,-99.0,0.0,,,,,,,,,,9,Melee,27.0,Unknown Weapon Type,,,,,,,,,,,,,,0.0,0.0,0.0,0.0,0.0,0.0,1,3.0,Minor (likely < $1 million),187500.0,Medical equipment damaged,0.0,,,,,,,0.0,,,,,,,,,"Dr. Jakubowski was the target of weekly protests.  He was one of the few physicians in the Chicago area that performed abortions in the second-trimester.  The perpetrators spray-painted slogans such as ""baby killer"" and ""thou shall not kill"" on the walls of the facility.","""Women's Clinic Vandalized,"" Associated Press, September 15, 1991.","Frank Burgos, ""Vandals Hit Aurora Clinic,"" Chicago Sun-Times, September 15, 1991.","Peter Kendall and Hal Dardick, ""Abortion Clinic Vandalism Fans Fears on Both Sides,"" Chicago Tribune, September 17, 1991.",Anti-Abortion Project 2010,-9,-9,0,-9,
199202130010,1992,2,13,,0,,6,Algeria,10,Middle East & North Africa,Algiers,Algiers,36.763763,3.055413,1.0,0,,,1,1,0,1,1.0,Insurgency/Guerilla Action,0,1,0,7,Facility/Infrastructure Attack,,,,,4,Military,27.0,Military Barracks/Base/Headquarters/Checkpost,Military,Admiralty Barracks,6.0,Algeria,,,,,,,,,,,,,,,,,Unknown,,,,,,,0.0,,,0,,,,,,,,,,,,,9,Melee,23.0,Knife or Other Sharp Object,5.0,Firearms,2.0,Automatic or Semi-Automatic Rifle,,,,,,,,,Knife; Automatic firearm,8.0,0.0,,2.0,0.0,,1,,,,,0.0,,,,,,,0.0,,,,,,,,,,,,,PGIS,-9,-9,0,-9,
199203210008,1992,3,21,,0,,15,Austria,8,Western Europe,Vienna,Vienna,48.208174,16.373819,1.0,0,,,1,1,1,0,,,0,1,0,7,Facility/Infrastructure Attack,,,,,6,Airports & Aircraft,43.0,Airline Officer/Personnel,Turkish Airlines,Office at Operngasse 3,209.0,Turkey,,,,,,,,,,,,,,,,,Kurdistan Workers' Party (PKK),,,,,,,0.0,,,0,12.0,,,,,,,,,,,,9,Melee,21.0,Blunt Object,,,,,,,,,,,,,Stones,0.0,,,0.0,,,1,,,,,0.0,,,,,,,0.0,,,,,,,,,,,,,PGIS,1,0,1,1,
199203210010,1992,3,21,,0,,151,Norway,8,Western Europe,Oslo,Oslo,59.913869,10.752245,1.0,0,,,1,1,1,0,,,0,1,0,7,Facility/Infrastructure Attack,,,,,7,Government (Diplomatic),46.0,Embassy/Consulate,Turkey State Dept.,Turkish Embassy,209.0,Turkey,,,,,,,,,,,,,,,,,Kurdistan Workers' Party (PKK),,,,,,,0.0,,,0,30.0,,,,,,,,,,,,9,Melee,23.0,Knife or Other Sharp Object,9.0,Melee,21.0,Blunt Object,8.0,Incendiary,,,,,,,Axes; Hammer; Incendiary,0.0,,,1.0,,,1,,,,"Damages: damaged embassy with axes, hammers, etc.",0.0,,,,,,,0.0,,,,,,,,,,,,,PGIS,1,0,1,1,
199203220011,1992,3,22,,0,,198,Sweden,8,Western Europe,Stockholm,Stockholm,59.332788,18.064488,1.0,0,,,1,1,1,-9,,,0,1,0,7,Facility/Infrastructure Attack,,,,,6,Airports & Aircraft,43.0,Airline Officer/Personnel,Turkish Airlines,Office,209.0,Turkey,,,,,,,,,,,,,,,,,Unknown,,,,,,,0.0,,,0,,,,,,,,,,,,,9,Melee,21.0,Blunt Object,,,,,,,,,,,,,Stones,0.0,,,0.0,,,1,,,,,0.0,,,,,,,0.0,,,,,,,,,,,,,PGIS,-9,-9,1,1,
199203230023,1992,3,23,,0,,198,Sweden,8,Western Europe,Stockholm,Stockholm,59.332788,18.064488,1.0,0,,,1,1,1,-9,,,0,1,0,7,Facility/Infrastructure Attack,,,,,7,Government (Diplomatic),46.0,Embassy/Consulate,Turkey State Dept,Turkish embassy,209.0,Turkey,,,,,,,,,,,,,,,,,Unknown,,,,,,,0.0,,,0,40.0,,,,,,,,,,,,9,Melee,21.0,Blunt Object,,,,,,,,,,,,,Stones,0.0,,,0.0,,,1,,,,,0.0,,,,,,,0.0,,,,,,,,,,,,,PGIS,-9,-9,1,1,
199203240021,1992,3,24,,0,,69,France,8,Western Europe,Ile-de-France,Paris,48.856644,2.34233,1.0,0,,,1,1,1,0,,,0,1,0,7,Facility/Infrastructure Attack,,,,,7,Government (Diplomatic),46.0,Embassy/Consulate,Turky state dept,Turkish embassy,209.0,Turkey,,,,,,,,,,,,,,,,,Kurdistan Workers' Party (PKK),,,,,,,0.0,,,0,,,,,,,,,,,,,9,Melee,21.0,Blunt Object,,,,,,,,,,,,,Stones,0.0,,,0.0,,,1,,,,,0.0,,,,,,,0.0,,,,,,,,,,,,,PGIS,1,0,1,1,
199203250012,1992,3,25,,0,,75,Germany,8,Western Europe,Berlin,Berlin,52.50153,13.401851,1.0,0,,,1,1,1,0,,,1,1,0,7,Facility/Infrastructure Attack,,,,,6,Airports & Aircraft,43.0,Airline Officer/Personnel,Turkish Airlines,Office,209.0,Turkey,,,,,,,,,,,,,,,,,Kurdistan Workers' Party (PKK),,,,,,,0.0,,,0,,,,,,,,,,,,,9,Melee,21.0,Blunt Object,8.0,Incendiary,,,,,,,,,,,Stones; Incendiary,0.0,,,0.0,,,1,,,,,0.0,,,,,,,0.0,,,,,,,,,,,,,PGIS,1,0,1,1,"199203250012, 199203250013"
199203250013,1992,3,25,,0,,75,Germany,8,Western Europe,Berlin,Berlin,52.50153,13.401851,1.0,0,,,1,1,1,0,,,1,1,0,7,Facility/Infrastructure Attack,,,,,6,Airports & Aircraft,43.0,Airline Officer/Personnel,Turkish Airlines,Office,209.0,Turkey,,,,,,,,,,,,,,,,,Kurdistan Workers' Party (PKK),,,,,,,0.0,,,0,,,,,,,,,,,,,9,Melee,21.0,Blunt Object,8.0,Incendiary,,,,,,,,,,,Stones; Incendiary,0.0,,,0.0,,,1,,,,,0.0,,,,,,,0.0,,,,,,,,,,,,,PGIS,1,0,1,1,"199203250012, 199203250013"
199203260006,1992,3,26,,0,,69,France,8,Western Europe,Alsace,Strasbourg,48.583148,7.747882,1.0,0,,,1,1,1,0,,,0,1,0,7,Facility/Infrastructure Attack,,,,,7,Government (Diplomatic),46.0,Embassy/Consulate,Turkey state dept,turkish consulate,209.0,Turkey,,,,,,,,,,,,,,,,,Kurdistan Workers' Party (PKK),,,,,,,0.0,,,0,28.0,,,,,,,,,,,,9,Melee,21.0,Blunt Object,8.0,Incendiary,,,,,,,,,,,Stones; Incendiary,0.0,,,0.0,,,1,,,,,0.0,,,,,,,0.0,,,,,,,,,,,,,PGIS,1,0,1,1,
199203270010,1992,3,27,,0,,75,Germany,8,Western Europe,Berlin,Berlin,52.50153,13.401851,1.0,0,,,1,1,1,0,,,0,1,0,7,Facility/Infrastructure Attack,,,,,1,Business,3.0,Bank/Commerce,Turkish Bank,Branch in Kreuzberg area,209.0,Turkey,,,,,,,,,,,,,,,,,Kurdistan Workers' Party (PKK),,,,,,,0.0,,,0,50.0,,,,,,,,,,,,9,Melee,21.0,Blunt Object,8.0,Incendiary,,,,,,,,,,,Stones; Incendiary,0.0,,,0.0,,,1,,,,"Damages: melee, extent of damage unknown (bank)",0.0,,,,,,,0.0,,,,,,,,,,,,,PGIS,1,0,1,1,
199206030014,1992,6,3,,0,,209,Turkey,10,Middle East & North Africa,Istanbul,Istanbul,41.106178,28.689863,1.0,0,,,1,1,1,0,,,0,1,0,7,Facility/Infrastructure Attack,,,,,7,Government (Diplomatic),45.0,"Diplomatic Personnel (outside of embassy, consulate)",Yugoslav State Dept,Yugoslav Consulate*,235.0,Yugoslavia,,,,,,,,,,,,,,,,,Islamic Movement Organization,,,,,,,0.0,,,0,,,,,,,,,,,,,9,Melee,21.0,Blunt Object,,,,,,,,,,,,,Stones,0.0,,,0.0,,,1,,,,,0.0,,,,,,,0.0,,,,,,,,,,,,,PGIS,0,1,1,1,
199207030009,1992,7,3,,0,,155,West Bank and Gaza Strip,10,Middle East & North Africa,West Bank,Bethlehem,31.704338,35.194355,1.0,0,,,1,1,1,0,,,0,1,0,7,Facility/Infrastructure Attack,,,,,3,Police,22.0,"Police Building (headquarters, station, school)",police,station,97.0,Israel,,,,,,,,,,,,,,,,,Palestinian Islamic Jihad (PIJ),,,,,,,0.0,,,0,,,,,,,,,,,,,9,Melee,21.0,Blunt Object,,,,,,,,,,,,,Stones,1.0,,,0.0,,,1,,,,,0.0,,,,,,,0.0,,,,,,,,,,,,,PGIS,0,0,0,0,
199209010006,1992,9,1,,0,,75,Germany,8,Western Europe,Brandenburg,Althuttendorf,52.963075,13.806567,1.0,0,,,1,1,1,-9,,,0,1,0,7,Facility/Infrastructure Attack,,,,,1,Business,8.0,Hotel/Resort,Govt,Foreigners Hostel,75.0,Germany,,,,,,,,,,,,,,,,,Neo-Nazi extremists,,,,,,,0.0,,,0,,,,,,,,,,,,,9,Melee,21.0,Blunt Object,,,,,,,,,,,,,Stones,0.0,,,0.0,,,1,,,,,0.0,,,,,,,0.0,,,,,,,,,,,,,PGIS,-9,-9,0,-9,
199209060016,1992,9,6,,0,,75,Germany,8,Western Europe,Brandenburg,Guben,51.95224,14.714819,1.0,0,,,1,1,1,-9,,,0,1,0,7,Facility/Infrastructure Attack,,,,,1,Business,8.0,Hotel/Resort,Govt,Foreigners Hostel,75.0,Germany,,,,,,,,,,,,,,,,,Neo-Nazi extremists,,,,,,,0.0,,,0,,,,,,,,,,,,,9,Melee,21.0,Blunt Object,,,,,,,,,,,,,Stones,0.0,,,0.0,,,1,,,,,0.0,,,,,,,0.0,,,,,,,,,,,,,PGIS,-9,-9,0,-9,
199209070010,1992,9,7,,0,,75,Germany,8,Western Europe,Unknown,Fritscheschdorf,,,5.0,0,,,1,1,1,-9,,,0,1,0,7,Facility/Infrastructure Attack,,,,,1,Business,8.0,Hotel/Resort,Govt,Foreigners Hostel,75.0,Germany,,,,,,,,,,,,,,,,,Neo-Nazi extremists,,,,,,,0.0,,,0,,,,,,,,,,,,,9,Melee,21.0,Blunt Object,,,,,,,,,,,,,Stones,0.0,,,0.0,,,1,,,,,0.0,,,,,,,0.0,,,,,,,,,,,,,PGIS,-9,-9,0,-9,
199209080013,1992,9,8,,0,,75,Germany,8,Western Europe,North Rhine-Westphalia,Dusseldorf,51.213924,6.780691,1.0,0,,,1,1,1,-9,,,0,1,0,7,Facility/Infrastructure Attack,,,,,1,Business,8.0,Hotel/Resort,Govt,Foreigners Hostel under Construction,75.0,Germany,,,,,,,,,,,,,,,,,Neo-Nazi extremists,,,,,,,0.0,,,0,,,,,,,,,,,,,9,Melee,21.0,Blunt Object,,,,,,,,,,,,,Stones,0.0,,,0.0,,,1,,,,,0.0,,,,,,,0.0,,,,,,,,,,,,,PGIS,-9,-9,0,-9,
199209090005,1992,9,9,,0,,75,Germany,8,Western Europe,Mecklenburg-West Pomerania,Waren,53.520174,12.680917,1.0,0,,,1,1,1,-9,,,0,1,0,7,Facility/Infrastructure Attack,,,,,1,Business,8.0,Hotel/Resort,Govt,Foreigners Hostel,75.0,Germany,,,,,,,,,,,,,,,,,Neo-Nazi extremists,,,,,,,0.0,,,0,,,,,,,,,,,,,9,Melee,21.0,Blunt Object,,,,,,,,,,,,,Stones,0.0,,,0.0,,,1,,,,,0.0,,,,,,,0.0,,,,,,,,,,,,,PGIS,-9,-9,0,-9,
199209100014,1992,9,10,,0,,75,Germany,8,Western Europe,Mecklenburg-West Pomerania,Gustrow,53.796759,12.172958,1.0,0,,,1,1,1,-9,,,0,1,0,7,Facility/Infrastructure Attack,,,,,1,Business,8.0,Hotel/Resort,Govt,Foreigners Hostel,75.0,Germany,,,,,,,,,,,,,,,,,Neo-Nazi extremists,,,,,,,0.0,,,0,,,,,,,,,,,,,9,Melee,21.0,Blunt Object,,,,,,,,,,,,,Stones,0.0,,,0.0,,,1,,,,,0.0,,,,,,,0.0,,,,,,,,,,,,,PGIS,-9,-9,0,-9,
199209100015,1992,9,10,,0,,78,Greece,8,Western Europe,Attica,Athens,37.99749,23.762728,1.0,0,,,1,1,1,-9,,,1,1,0,7,Facility/Infrastructure Attack,,,,,1,Business,3.0,Bank/Commerce,,Banks *,78.0,Greece,,,,,,,,,,,,,,,,,Anarchists,,,,,,,0.0,,,0,,,,,,,,,,,,,9,Melee,21.0,Blunt Object,,,,,,,,,,,,,Rocks,0.0,,,0.0,,,1,,,,,0.0,,,,,,,0.0,,,,,,,,,,,,,PGIS,-9,-9,0,-9,"199209100015, 199209100016, 199209100017, 199209100018, 199209100019"
199209100016,1992,9,10,,0,,78,Greece,8,Western Europe,Attica,Athens,37.99749,23.762728,1.0,0,,,1,1,1,-9,,,1,1,0,7,Facility/Infrastructure Attack,,,,,1,Business,3.0,Bank/Commerce,,Banks *,78.0,Greece,,,,,,,,,,,,,,,,,Anarchists,,,,,,,0.0,,,0,,,,,,,,,,,,,9,Melee,21.0,Blunt Object,,,,,,,,,,,,,Rocks,0.0,,,0.0,,,1,,,,,0.0,,,,,,,0.0,,,,,,,,,,,,,PGIS,-9,-9,0,-9,"199209100015, 199209100016, 199209100017, 199209100018, 199209100019"
199209100017,1992,9,10,,0,,78,Greece,8,Western Europe,Attica,Athens,37.99749,23.762728,1.0,0,,,1,1,1,-9,,,1,1,0,7,Facility/Infrastructure Attack,,,,,1,Business,3.0,Bank/Commerce,,Banks *,78.0,Greece,,,,,,,,,,,,,,,,,Anarchists,,,,,,,0.0,,,0,,,,,,,,,,,,,9,Melee,21.0,Blunt Object,,,,,,,,,,,,,Rocks,0.0,,,0.0,,,1,,,,,0.0,,,,,,,0.0,,,,,,,,,,,,,PGIS,-9,-9,0,-9,"199209100015, 199209100016, 199209100017, 199209100018, 199209100019"
199209100018,1992,9,10,,0,,78,Greece,8,Western Europe,Attica,Athens,37.99749,23.762728,1.0,0,,,1,1,1,-9,,,1,1,0,7,Facility/Infrastructure Attack,,,,,1,Business,3.0,Bank/Commerce,,Banks *,78.0,Greece,,,,,,,,,,,,,,,,,Anarchists,,,,,,,0.0,,,0,,,,,,,,,,,,,9,Melee,21.0,Blunt Object,,,,,,,,,,,,,Rocks,0.0,,,0.0,,,1,,,,,0.0,,,,,,,0.0,,,,,,,,,,,,,PGIS,-9,-9,0,-9,"199209100015, 199209100016, 199209100017, 199209100018, 199209100019"
199209100019,1992,9,10,,0,,78,Greece,8,Western Europe,Attica,Athens,37.99749,23.762728,1.0,0,,,1,1,1,-9,,,1,1,0,7,Facility/Infrastructure Attack,,,,,1,Business,3.0,Bank/Commerce,,Banks *,78.0,Greece,,,,,,,,,,,,,,,,,Anarchists,,,,,,,0.0,,,0,,,,,,,,,,,,,9,Melee,21.0,Blunt Object,,,,,,,,,,,,,Rocks,0.0,,,0.0,,,1,,,,,0.0,,,,,,,0.0,,,,,,,,,,,,,PGIS,-9,-9,0,-9,"199209100015, 199209100016, 199209100017, 199209100018, 199209100019"
199209170010,1992,9,17,,0,,155,West Bank and Gaza Strip,10,Middle East & North Africa,Gaza Strip,Gaza,31.502407,34.459743,1.0,1,,,1,1,0,1,1.0,Insurgency/Guerilla Action,0,1,0,7,Facility/Infrastructure Attack,,,,,4,Military,27.0,Military Barracks/Base/Headquarters/Checkpost,Military,"Military Base, Jabalya Refugee Camp",97.0,Israel,,,,,,,,,,,,,,,,,Palestinians,,,,,,,0.0,,,0,,,,,,,,,,,,,9,Melee,21.0,Blunt Object,,,,,,,,,,,,,Stones,0.0,,,6.0,,,1,,,,,0.0,,,,,,,0.0,,,,,,,,,,,,,PGIS,0,0,0,0,
199209180011,1992,9,18,,0,,75,Germany,8,Western Europe,Mecklenburg-West Pomerania,Schwerin,53.625743,11.416893,1.0,0,,,1,1,1,-9,,,0,1,0,7,Facility/Infrastructure Attack,,,,,1,Business,8.0,Hotel/Resort,Govt,Foreigners Hostel,75.0,Germany,,,,,,,,,,,,,,,,,Neo-Nazi extremists,,,,,,,0.0,,,0,,,,,,,,,,,,,9,Melee,21.0,Blunt Object,,,,,,,,,,,,,Stones,0.0,,,0.0,,,1,,,,,0.0,,,,,,,0.0,,,,,,,,,,,,,PGIS,-9,-9,0,-9,
199209210013,1992,9,21,,0,,75,Germany,8,Western Europe,Brandenburg,Lubbenau,51.868166,13.969383,1.0,0,,,1,1,1,-9,,,0,1,0,7,Facility/Infrastructure Attack,,,,,1,Business,8.0,Hotel/Resort,Govt,Foreigners Hostel,75.0,Germany,,,,,,,,,,,,,,,,,Neo-Nazi extremists,,,,,,,0.0,,,0,60.0,,,,,,,,,,,,9,Melee,21.0,Blunt Object,,,,,,,,,,,,,Stones,0.0,,,0.0,,,1,,,,,0.0,,,,,,,0.0,,,,,,,,,,,,,PGIS,-9,-9,0,-9,
199209240006,1992,9,24,,0,,75,Germany,8,Western Europe,Bavaria,Passau,48.566966,13.432028,1.0,0,,,1,1,1,-9,,,0,1,0,7,Facility/Infrastructure Attack,,,,,1,Business,8.0,Hotel/Resort,Govt,Foreigners Hostel,75.0,Germany,,,,,,,,,,,,,,,,,Neo-Nazi extremists,,,,,,,0.0,,,0,,,,,,,,,,,,,9,Melee,21.0,Blunt Object,,,,,,,,,,,,,Stones,0.0,,,0.0,,,1,,,,,0.0,,,,,,,0.0,,,,,,,,,,,,,PGIS,-9,-9,0,-9,
199210130004,1992,10,13,,0,,75,Germany,8,Western Europe,Lower Saxony,Hanover,52.372068,9.735686,1.0,0,,,1,1,1,-9,,,0,1,0,7,Facility/Infrastructure Attack,,,,,1,Business,3.0,Bank/Commerce,,Turkish - owned Bank,209.0,Turkey,,,,,,,,,,,,,,,,,Kurdish Sympathizers,,,,,,,0.0,,,0,,,,,,,,,,,,,9,Melee,21.0,Blunt Object,8.0,Incendiary,,,,,,,,,,,Stones; Incendiary,0.0,,,0.0,,,1,,,,,0.0,,,,,,,0.0,,,,,,,,,,,,,PGIS,-9,-9,1,1,
199210130005,1992,10,13,,0,,75,Germany,8,Western Europe,Lower Saxony,Hanover,52.372068,9.735686,1.0,0,,,1,1,1,-9,,,0,1,0,7,Facility/Infrastructure Attack,,,,,1,Business,11.0,Entertainment/Cultural/Stadium/Casino,,Turkish-Owned Travel Agency,209.0,Turkey,,,,,,,,,,,,,,,,,Kurdish Sympathizers,,,,,,,0.0,,,0,,,,,,,,,,,,,9,Melee,21.0,Blunt Object,8.0,Incendiary,,,,,,,,,,,Stones; Incendiary,0.0,,,0.0,,,1,,,,,0.0,,,,,,,0.0,,,,,,,,,,,,,PGIS,-9,-9,1,1,
199210130006,1992,10,13,,0,,75,Germany,8,Western Europe,Lower Saxony,Hanover,52.372068,9.735686,1.0,0,,,1,1,1,-9,,,0,1,0,7,Facility/Infrastructure Attack,,,,,7,Government (Diplomatic),46.0,Embassy/Consulate,Turkish State Dept,Turkish Consulate,209.0,Turkey,,,,,,,,,,,,,,,,,Kurdish Sympathizers,,,,,,,0.0,,,0,,,,,,,,,,,,,9,Melee,21.0,Blunt Object,8.0,Incendiary,,,,,,,,,,,Stones; Incendiary,0.0,,,0.0,,,1,,,,,0.0,,,,,,,0.0,,,,,,,,,,,,,PGIS,-9,-9,1,1,
199210130007,1992,10,13,,0,,75,Germany,8,Western Europe,Lower Saxony,Hanover,52.372068,9.735686,1.0,0,,,1,1,1,-9,,,0,1,0,7,Facility/Infrastructure Attack,,,,,2,Government (General),21.0,Government Building/Facility/Office,Govt,Turkish Cultural Center,209.0,Turkey,,,,,,,,,,,,,,,,,Kurdish Sympathizers,,,,,,,0.0,,,0,,,,,,,,,,,,,9,Melee,21.0,Blunt Object,8.0,Incendiary,,,,,,,,,,,Stones; Incendiary,0.0,,,0.0,,,1,,,,,0.0,,,,,,,0.0,,,,,,,,,,,,,PGIS,-9,-9,1,1,
199210140003,1992,10,14,,0,,75,Germany,8,Western Europe,North Rhine-Westphalia,Cologne,50.940664,6.959912,1.0,0,,,1,1,1,0,,,1,1,0,7,Facility/Infrastructure Attack,,,,,1,Business,3.0,Bank/Commerce,,Turkish Bank (name not given),209.0,Turkey,,,,,,,,,,,,,,,,,Kurdistan Workers' Party (PKK),,,,,,,0.0,,,0,,,,,,,,,,,,,9,Melee,21.0,Blunt Object,,,,,,,,,,,,,Stones,0.0,,,0.0,,,1,,,,,0.0,,,,,,,0.0,,,,,,,,,,,,,PGIS,1,0,1,1,"199210140003, 199210140004"
199210140004,1992,10,14,,0,,75,Germany,8,Western Europe,North Rhine-Westphalia,Cologne,50.940664,6.959912,1.0,0,,,1,1,1,0,,,1,1,0,7,Facility/Infrastructure Attack,,,,,1,Business,3.0,Bank/Commerce,,Turkish Bank (name not given),209.0,Turkey,,,,,,,,,,,,,,,,,Kurdistan Workers' Party (PKK),,,,,,,0.0,,,0,,,,,,,,,,,,,9,Melee,21.0,Blunt Object,,,,,,,,,,,,,Stones,0.0,,,0.0,,,1,,,,,0.0,,,,,,,0.0,,,,,,,,,,,,,PGIS,1,0,1,1,"199210140003, 199210140004"
199210230003,1992,10,23,,0,,75,Germany,8,Western Europe,Mecklenburg-West Pomerania,Ueckermunde,53.738622,14.042944,1.0,0,,,1,1,1,-9,,,0,1,0,7,Facility/Infrastructure Attack,,,,,1,Business,8.0,Hotel/Resort,Govt,Foreigners Hostel,75.0,Germany,,,,,,,,,,,,,,,,,Neo-Nazi extremists,,,,,,,0.0,,,0,,,,,,,,,,,,,9,Melee,21.0,Blunt Object,8.0,Incendiary,,,,,,,,,,,Stones; Incendiary,0.0,,,0.0,,,1,,,,,0.0,,,,,,,0.0,,,,,,,,,,,,,PGIS,-9,-9,0,-9,
199210230005,1992,10,23,,0,,75,Germany,8,Western Europe,Mecklenburg-West Pomerania,Lubz,53.46302,12.025584,1.0,0,,,1,1,1,-9,,,0,1,0,7,Facility/Infrastructure Attack,,,,,1,Business,8.0,Hotel/Resort,Govt,Foreigners Hostel,75.0,Germany,,,,,,,,,,,,,,,,,Neo-Nazi extremists,,,,,,,0.0,,,0,,,,,,,,,,,,,9,Melee,21.0,Blunt Object,8.0,Incendiary,,,,,,,,,,,Stones; Incendiary,0.0,,,0.0,,,1,,,,,0.0,,,,,,,0.0,,,,,,,,,,,,,PGIS,-9,-9,0,-9,
199210230006,1992,10,23,,0,,75,Germany,8,Western Europe,Baden-Wurttemberg,Uberlingen,47.768399,9.159334,1.0,0,,,1,1,1,-9,,,0,1,0,7,Facility/Infrastructure Attack,,,,,14,Private Citizens & Property,80.0,Memorial/Cemetery/Monument,,Cemetary and Memorial for Concentration Camp Victims,75.0,Germany,,,,,,,,,,,,,,,,,Neo-Nazi extremists,,,,,,,0.0,,,0,,,,,,,,,,,,,9,Melee,21.0,Blunt Object,9.0,Melee,21.0,Blunt Object,,,,,,,,,Stones; Uprooted grave stones,0.0,,,0.0,,,1,,,,,0.0,,,,,,,0.0,,,,,,,,,,,,,PGIS,-9,-9,0,-9,
199211020004,1992,11,2,,0,,155,West Bank and Gaza Strip,10,Middle East & North Africa,Gaza Strip,Gaza,31.502407,34.459743,1.0,1,,,1,1,0,1,1.0,Insurgency/Guerilla Action,0,1,0,7,Facility/Infrastructure Attack,,,,,4,Military,27.0,Military Barracks/Base/Headquarters/Checkpost,Military,Army Base,97.0,Israel,,,,,,,,,,,,,,,,,Palestinians,,,,,,,0.0,,,0,,,,,,,,,,,,,9,Melee,21.0,Blunt Object,,,,,,,,,,,,,Stones,0.0,,,1.0,,,1,,,,,0.0,,,,,,,0.0,,,,,,,,,,,,,PGIS,0,0,0,0,
199212020006,1992,12,2,,0,,75,Germany,8,Western Europe,Saxony-Anhalt,Magdeburg,52.131076,11.636583,1.0,0,,,1,1,1,-9,,,0,1,0,7,Facility/Infrastructure Attack,,,,,2,Government (General),21.0,Government Building/Facility/Office,Government,Foreigner's Hostel,75.0,Germany,,,,,,,,,,,,,,,,,Neo-Nazi extremists,,,,,,,0.0,,,0,10.0,,,,,,,,,,,,9,Melee,21.0,Blunt Object,,,,,,,,,,,,,Stones,0.0,,,0.0,,,1,,,,,0.0,,,,,,,0.0,,,,,,,,,,,,,PGIS,-9,-9,0,-9,
199212080021,1992,12,8,,0,,153,Pakistan,6,South Asia,Balochistan,Loralai,30.445122,69.094176,1.0,0,,,1,1,1,-9,,,0,1,0,7,Facility/Infrastructure Attack,,,,,15,Religious Figures/Institutions,86.0,Place of Worship,,Hindu Temple,153.0,Pakistan,,,,,,,,,,,,,,,,,Muslim Militants,,,,,,,0.0,,,0,,,,,,,,,,,,,9,Melee,21.0,Blunt Object,,,,,,,,,,,,,Stones,6.0,,,0.0,,,1,,,,,0.0,,,,,,,0.0,,,,,,,,,,,,,PGIS,-9,-9,0,-9,
199401280003,1994,1,28,,0,,14,Australia,12,Australasia & Oceania,New South Wales,Sydney,-33.873651,151.20689,1.0,0,,,1,1,1,0,,,0,1,0,7,Facility/Infrastructure Attack,,,,,7,Government (Diplomatic),46.0,Embassy/Consulate,Mexico State Sept.,Mexican Consulate,130.0,Mexico,,,,,,,,,,,,,,,,,Zapatista National Liberation Army,,,,,,,0.0,,,0,,,,,,,,,,,,,9,Melee,21.0,Blunt Object,8.0,Incendiary,,,,,,,,,,,Bricks; Incendiary,0.0,0.0,,0.0,0.0,,1,,,,,0.0,,,,,,,0.0,,,,,,,,,,,,,PGIS,1,0,1,1,
199401290002,1994,1,29,,0,,213,Uganda,11,Sub-Saharan Africa,Eastern,Iganga,0.604583,33.471983,1.0,0,,,1,1,1,-9,,,0,1,0,7,Facility/Infrastructure Attack,,,,,14,Private Citizens & Property,76.0,House/Apartment/Residence,Government,Residence of local Chief,213.0,Uganda,,,,,,,,,,,,,,,,,Unknown,,,,,,,0.0,,,0,100.0,,,,,,,,,,,,9,Melee,21.0,Blunt Object,,,,,,,,,,,,,Stones,1.0,,,0.0,,,1,,,,,0.0,,,,,,,0.0,,,,,,,,,,,,,PGIS,-9,-9,0,-9,
199402270008,1994,2,27,,0,,21,Belgium,8,Western Europe,Brussels,Brussels,50.836426,4.367415,1.0,0,,,1,1,1,-9,,,0,0,0,7,Facility/Infrastructure Attack,,,,,14,Private Citizens & Property,81.0,Museum/Cultural Center/Cultural House,Uknown,Jewish Museum,21.0,Belgium,,,,,,,,,,,,,,,,,Pro-Palestinian Immigrants,,,,,,,0.0,,,0,,,,,,,,,,,,,9,Melee,21.0,Blunt Object,,,,,,,,,,,,,Stones,,,,,,,1,,,,,0.0,,,,,,,0.0,,,,,,,,,,,,,PGIS,-9,-9,0,-9,
199404230010,1994,4,23,,0,,94,Iran,10,Middle East & North Africa,Tehran,Tehran,35.724533,51.40519,1.0,0,,,1,1,1,-9,,,0,1,0,7,Facility/Infrastructure Attack,,,,,7,Government (Diplomatic),47.0,"International Organization (peacekeeper, aid agency, compound)",United Nations,Offices,422.0,International,,,,,,,,,,,,,,,,,Unknown,,,,,,,0.0,,,0,,,,,,,,,,,,,9,Melee,21.0,Blunt Object,,,,,,,,,,,,,Stones,0.0,,,0.0,,,1,,,,,0.0,,,,,,,0.0,,,,,,,,,,,,,PGIS,-9,-9,1,1,
199406070008,1994,6,7,,0,,155,West Bank and Gaza Strip,10,Middle East & North Africa,Gaza Strip,Rafah,31.278791,34.256435,1.0,0,,,1,1,0,1,1.0,Insurgency/Guerilla Action,0,1,0,7,Facility/Infrastructure Attack,,,,,4,Military,27.0,Military Barracks/Base/Headquarters/Checkpost,Israel Military,Army Border Post,97.0,Israel,,,,,,,,,,,,,,,,,Palestinians,,,,,,,0.0,,,0,,,,,,,,,,,,,9,Melee,21.0,Blunt Object,,,,,,,,,,,,,Stones,0.0,,,3.0,,,1,,,,,0.0,,,,,,,0.0,,,,,,,,,,,,,PGIS,0,0,0,0,
199407230009,1994,7,23,,0,,75,Germany,8,Western Europe,Thuringia,Buchenwald,51.021788,11.246999,1.0,0,,,1,1,1,-9,,,0,1,0,7,Facility/Infrastructure Attack,,,,,14,Private Citizens & Property,81.0,Museum/Cultural Center/Cultural House,Former Death Camp,Museum,75.0,Germany,,,,,,,,,,,,,,,,,Neo-Nazi extremists,,,,,,,0.0,,,0,22.0,,,,,,,,,,,,9,Melee,21.0,Blunt Object,,,,,,,,,,,,,Stones,0.0,,,0.0,,,1,,,,,0.0,,,,,,,0.0,,,,,,,,,,,,,PGIS,-9,-9,0,-9,
199410120012,1994,10,12,,0,,19,Bangladesh,6,South Asia,Dhaka,Dhaka,23.791275,90.418205,1.0,0,,,1,1,1,0,,,0,1,0,7,Facility/Infrastructure Attack,,,,,2,Government (General),15.0,Politician or Political Party Movement/Meeting/Rally,Opposition Awemi League,Office,19.0,Bangladesh,,,,,,,,,,,,,,,,,United Action Council,,,,,,,0.0,,,0,,,,,,,,,,,,,9,Melee,21.0,Blunt Object,,,,,,,,,,,,,Stones,0.0,,,50.0,,,1,,,,,0.0,,,,,,,0.0,,,,,,,,,,,,,PGIS,0,0,0,0,
199410180008,1994,10,18,,0,,93,Indonesia,5,Southeast Asia,Jakarta,Jakarta,-6.208821,106.846046,1.0,0,,,1,1,0,1,1.0,Insurgency/Guerilla Action,0,1,0,7,Facility/Infrastructure Attack,,,,,4,Military,28.0,Military Recruiting Station/Academy,National University,In-House military cadet corps,93.0,Indonesia,,,,,,,,,,,,,,,,,Unknown,,,,,,,0.0,,,0,12.0,,,,,,,,,,,,9,Melee,21.0,Blunt Object,8.0,Incendiary,18.0,Arson/Fire,,,,,,,,,Baseball bats; Arson,0.0,,,4.0,,,1,,,,,0.0,,,,,,,0.0,,,,,,,,,,,,,PGIS,-9,-9,0,-9,
199411110008,1994,11,11,,0,,218,Uruguay,3,South America,Montevideo,Montevideo,-34.891151,-56.187214,1.0,0,,,1,1,1,-9,,,0,1,0,7,Facility/Infrastructure Attack,,,,,2,Government (General),15.0,Politician or Political Party Movement/Meeting/Rally,Colorado Party,"Theater used for rallies, a bus, and a club",218.0,Uruguay,,,,,,,,,,,,,,,,,Unknown,,,,,,,0.0,,,0,,,,,,,,,,,,,9,Melee,21.0,Blunt Object,,,,,,,,,,,,,Stones,0.0,,,2.0,,,1,,,,,0.0,,,,,,,0.0,,,,,,,,,,,,,PGIS,-9,-9,0,-9,
199503180010,1995,3,18,,0,,217,United States,1,North America,Colorado,Denver,39.758968,-104.876305,1.0,0,,,1,1,1,0,,,0,1,0,7,Facility/Infrastructure Attack,,,,,5,Abortion Related,40.0,Clinics,Planned Parenthood,Clinic,217.0,United States,,,,,,,,,,,,,,,,,Anti-Abortion extremists,,,,,,,0.0,,,1,1.0,,,,,,,,,,,,9,Melee,21.0,Blunt Object,,,,,,,,,,,,,Sledgehammer,0.0,,,0.0,,,1,,,,,0.0,,,,,,,0.0,,,,,,,,,,,,,PGIS,-9,-9,0,-9,
199508120002,1995,8,12,,0,,160,Philippines,5,Southeast Asia,Lanao del Sur,Calanogas,7.750031,124.099817,1.0,0,,,1,1,1,-9,,,0,1,0,7,Facility/Infrastructure Attack,,,,,21,Utilities,107.0,Electricity,National Power Corp,Wooden Power Pole,160.0,Philippines,,,,,,,,,,,,,,,,,Muslim Guerrillas,,,,,,,0.0,,,0,,,,,,,,,,,,,9,Melee,23.0,Knife or Other Sharp Object,,,,,,,,,,,,,Saw,0.0,,,0.0,,,1,,,,,0.0,,,,,,,0.0,,,,,,,,,,,,,PGIS,-9,-9,0,-9,
199510050006,1995,10,5,,0,,11,Argentina,3,South America,Rio Negro,Unknown,-40.734434,-66.617645,4.0,0,,,1,1,1,-9,,,0,1,0,7,Facility/Infrastructure Attack,,,,,2,Government (General),18.0,"Government Personnel (excluding police, military)",govt.,provincial governors office,11.0,Argentina,,,,,,,,,,,,,,,,,Workers/Employees,Public Sector Workers,,,,,,0.0,,,0,,,,,,,,,,,,,9,Melee,21.0,Blunt Object,,,,,,,,,,,,,Stones,0.0,,,0.0,,,1,,,,,0.0,,,,,,,0.0,,,,,,,,,,,,,PGIS,-9,-9,0,-9,
199510050007,1995,10,5,,0,,11,Argentina,3,South America,Rio Negro,Unknown,-40.734434,-66.617645,4.0,0,,,1,1,1,-9,,,0,1,0,7,Facility/Infrastructure Attack,,,,,2,Government (General),21.0,Government Building/Facility/Office,Govt,Rio negro economy ministry bldg.,11.0,Argentina,,,,,,,,,,,,,,,,,Workers/Employees,Public Sector Workers,,,,,,0.0,,,0,,,,,,,,,,,,,9,Melee,21.0,Blunt Object,,,,,,,,,,,,,Stones,0.0,,,0.0,,,1,,,,,0.0,,,,,,,0.0,,,,,,,,,,,,,PGIS,-9,-9,0,-9,
199510110010,1995,10,11,,0,,30,Brazil,3,South America,Mato Grosso do Sul,Amambai,-23.107752,-55.225836,1.0,0,,,1,1,1,0,,,0,1,0,7,Facility/Infrastructure Attack,,,,,2,Government (General),21.0,Government Building/Facility/Office,government,Mayoral offices,30.0,Brazil,,,,,,,,,,,,,,,,,Unknown,,,,,,,0.0,,,0,,,,,,,,,,,,,9,Melee,21.0,Blunt Object,,,,,,,,,,,,,Stones,0.0,,,28.0,,,1,,,,,0.0,,,,,,,0.0,,,,,,,,,,,,,PGIS,-9,-9,0,-9,
199601050015,1996,1,5,,0,,78,Greece,8,Western Europe,Attica,Athens,37.99749,23.762728,1.0,0,,,1,1,1,0,,,0,1,0,7,Facility/Infrastructure Attack,,,,,6,Airports & Aircraft,43.0,Airline Officer/Personnel,Turkish Airlines,Turkish Airlines Offices,209.0,Turkey,,,,,,,,,,,,,,,,,Kurdistan Workers' Party (PKK),,,,,,,0.0,,,0,,,,,,,,,,,,,9,Melee,21.0,Blunt Object,,,,,,,,,,,,,Rocks,0.0,,,0.0,,,1,,,,,0.0,,,,,,,0.0,,,,,,,,,,,,,PGIS,1,0,1,1,
199603040009,1996,3,4,,0,,19,Bangladesh,6,South Asia,Chittagong,Chandpur,23.224468,90.654359,1.0,0,,,1,1,1,0,,,0,1,0,7,Facility/Infrastructure Attack,,,,,2,Government (General),19.0,Election-related,Govt,Polling Booths,19.0,Bangladesh,,,,,,,,,,,,,,,,,Opposition Group,Activists,,,,,,0.0,,,0,,,,,,,,,,,,,9,Melee,21.0,Blunt Object,9.0,Melee,21.0,Blunt Object,,,,,,,,,Sticks; Rocks,0.0,,,0.0,,,1,,,,,0.0,,,,,,,0.0,,,,,,,,,,,,,PGIS,-9,-9,0,-9,
199604210006,1996,4,21,,0,,93,Indonesia,5,Southeast Asia,North Sumatra,Medan,3.585242,98.675598,1.0,0,,,1,1,1,0,,,0,1,0,7,Facility/Infrastructure Attack,,,,,2,Government (General),15.0,Politician or Political Party Movement/Meeting/Rally,Independent Election Monitoring Committee (Kipp),Kipp Branch Office,93.0,Indonesia,,,,,,,,,,,,,,,,,Mob,,,,,,,0.0,,,0,,,,,,,,,,,,,9,Melee,21.0,Blunt Object,,,,,,,,,,,,,Stones,0.0,,,0.0,,,1,,,,,0.0,,,,,,,0.0,,,,,,,,,,,,,PGIS,-9,-9,0,-9,
199610070004,1996,10,7,,0,,153,Pakistan,6,South Asia,Punjab,Lahore,31.50547,74.34288,1.0,0,,,1,1,1,0,,,0,1,0,7,Facility/Infrastructure Attack,,,,,2,Government (General),21.0,Government Building/Facility/Office,Government,Provincial Assembly Building,153.0,Pakistan,,,,,,,,,,,,,,,,,Anti-Bhutto demonstrators,,,,,,,0.0,,,0,,,,,,,,,,,,,9,Melee,21.0,Blunt Object,,,,,,,,,,,,,Stones,0.0,,,4.0,,,1,,,,,0.0,,,,,,,0.0,,,,,,,,,,,,,PGIS,-9,-9,0,-9,
199611130013,1996,11,13,,0,,93,Indonesia,5,Southeast Asia,East Timor,Dili,-8.54966,125.566599,1.0,0,,,1,1,1,0,,,0,1,0,7,Facility/Infrastructure Attack,,,,,2,Government (General),21.0,Government Building/Facility/Office,Government,Legislature,93.0,Indonesia,,,,,,,,,,,,,,,,,Timorese Students,,,,,,,0.0,,,0,,,,,,,,,,,,,9,Melee,21.0,Blunt Object,,,,,,,,,,,,,Stones,0.0,,,0.0,,,1,,,,,0.0,,,,,,,0.0,,,,,,,,,,,,,PGIS,0,0,0,0,
199702030013,1997,2,3,,0,,11,Argentina,3,South America,Tucuman,San Miguel de Tucuman,-26.808285,-65.21759,1.0,0,,,1,1,1,-9,,,0,1,0,7,Facility/Infrastructure Attack,,,,,1,Business,,,Delegation of Argentine-Jewish Associations,Office,11.0,Argentina,,,,,,,,,,,,,,,,,Unknown,,,,,,,0.0,,,0,,,,,,,,,,,,,9,Melee,21.0,Blunt Object,,,,,,,,,,,,,Stones,0.0,,,0.0,,,1,,,,,0.0,,,,,,,0.0,,,,,,,,,,,,,PGIS,-9,-9,0,-9,
199703040003,1997,3,4,,0,,144,New Zealand,12,Australasia & Oceania,Auckland,Auckland,-36.84846,174.763332,1.0,0,,,1,1,1,-9,,,0,1,0,7,Facility/Infrastructure Attack,,,,,14,Private Citizens & Property,74.0,Marketplace/Plaza/Square,Royal New Zealand Yacht Sq,America's Cup,144.0,New Zealand,,,,,,,,,,,,,,,,,Maori,,,,,,,0.0,,,0,1.0,,,,,,,,,,,,9,Melee,21.0,Blunt Object,,,,,,,,,,,,,Sledgehammer,0.0,,,0.0,,,1,,,,,0.0,,,,,,,0.0,,,,,,,,,,,,,PGIS,0,0,0,0,
199704090004,1997,4,9,,0,,93,Indonesia,5,Southeast Asia,Central Java,Wonosobo,-7.362109,109.899399,1.0,0,,,1,1,1,0,,,0,1,0,7,Facility/Infrastructure Attack,,,,,2,Government (General),21.0,Government Building/Facility/Office,,"townhalls, houses, place of worship",93.0,Indonesia,,,,,,,,,,,,,,,,,Youths,,,,,,,0.0,,,0,,,,,,,,,,,,,9,Melee,21.0,Blunt Object,,,,,,,,,,,,,Stones,0.0,,,14.0,,,1,,,,,0.0,,,,,,,0.0,,,,,,,,,,,,,PGIS,-9,-9,0,-9,
199705150005,1997,5,15,,0,,87,Haiti,2,Central America & Caribbean,Ouest,Port-au-Prince,18.527716,-72.33284,1.0,0,,,1,1,1,-9,,,0,1,0,7,Facility/Infrastructure Attack,,,,,1,Business,6.0,Medical/Pharmaceutical,General Hospital,Hospital,87.0,Haiti,,,,,,,,,,,,,,,,,Protesters,,,,,,,0.0,,,0,,,,,,,,,,,,,9,Melee,21.0,Blunt Object,,,,,,,,,,,,,Stones,0.0,,,5.0,,,1,,,,,0.0,,,,,,,0.0,,,,,,,,,,,,,PGIS,-9,-9,0,-9,
199711190003,1997,11,19,,0,,158,Paraguay,3,South America,Asuncion,Asuncion,-25.282773,-57.63561,1.0,0,,,1,1,1,-9,,,0,1,0,7,Facility/Infrastructure Attack,,,,,2,Government (General),15.0,Politician or Political Party Movement/Meeting/Rally,Colorado Party,HQ,158.0,Paraguay,,,,,,,,,,,,,,,,,Supporters of ret. Gen. Lino Oviedo,,,,,,,0.0,,,0,,,,,,,,,,,,,9,Melee,21.0,Blunt Object,,,,,,,,,,,,,Stones,0.0,,,3.0,,,1,,,,,0.0,,,,,,,0.0,,,,,,,,,,,,,PGIS,0,0,0,0,
199904300002,1999,4,30,,0,,185,Spain,8,Western Europe,Basque Country,Irun,43.338233,-1.789272,1.0,0,,"04/30/1999: At 11:00 am local time, eight hooded individuals attacked a temp agency on Colon Avenue in Irun, Spain. Computers, shelves, and other items were thrown onto the floor in the office, but no one was injured. Jarrai, a pro-ETA Basque separatist youth organization, was suspected in the attack.",1,1,1,1,2.0,Other Crime Type,0,1,0,7,Facility/Infrastructure Attack,,,,,1,Business,,,,Temp Agency in Irun,185.0,Spain,,,,,,,,,,,,,,,,,Jarrai,,,,,,Unknown,1.0,,,0,8.0,,0.0,,,,,,,,,,9,Melee,22.0,"Hands, Feet, Fists",,,,,,,,,,,,,,0.0,0.0,0.0,0.0,0.0,0.0,1,3.0,Minor (likely < $1 million),,Computers were trashed and shelves were broken,0.0,,,,,,,,,,,,,,,,Jarrai leaders had previously attacked targets of this kind.,"""Spain: Pro-ETA Group Attacks Temp Agency in Irun,"" Madrid ABC, May 1, 1999.",,,CETIS,0,0,0,0,
199905280004,1999,5,28,,0,,93,Indonesia,5,Southeast Asia,Jakarta,Jakarta,-6.208821,106.846046,1.0,0,,"05/28/1999: Attackers belonging to the People's Sovereignty Party threw stones at the Secretariat office of the Urban Poor Consortium (UPC) in Jakarta, Indonesia, breaking the building's front windows, but causing no casualties. Callers associated with the People's Sovereignty Party had threatened to attack and burn down the Secretariat if the UPC continued with a plan to unveil malfeasance on the disbursement of a safety net fund later that afternoon.",1,1,1,1,2.0,Other Crime Type,0,1,0,7,Facility/Infrastructure Attack,,,,,12,NGO,61.0,Domestic NGO,Urban Poor Consortium (UPC),Urban Poor Consortium (UPC) Secretariat office in Jakarta,93.0,Indonesia,,,,,,,,,,,,,,,,,People's Sovereignty Party (PDR),,,,,,The callers threatened to attack and burn down the Secretariat if the UPC continued with a plan to unveil malfeasance on the disbursement of the safety net fund later that afternoon.,0.0,,,0,,0.0,0.0,,,,,,,,,,9,Melee,21.0,Blunt Object,,,,,,,,,,,,,The attackers threw rocks at the building.,0.0,0.0,0.0,0.0,0.0,0.0,1,3.0,Minor (likely < $1 million),,Windows along the front of the building were broken.,0.0,,,,,,,,,,,,,,,,Wardah Hafidz disclosed evidence about money politics allegedly practiced by the People's Sovereignty Party and the Golkar Party in various regions later that day. Evidence showed that the two parties allegedly utilized the safety net fund and credit reserved for farmers and for small-scale development for the parties' interests. The attack therefore failed to prevent the information from being disclosed to the public.,"“UPC's secretariat pelted with stones,” The Jakarta Post, May 28, 1999.",,,CETIS,0,0,0,0,
199907290006,1999,7,29,,0,,185,Spain,8,Western Europe,Basque Country,Barakaldo,43.297222,-2.991667,1.0,0,,"07/29/1999: A group of unidentified hooded individuals attacked the courthouse and the Popular Party (PP) offices in Barakaldo, Spain. Several windows of the PP offices were broken and fire was set to the garbage bins. There were no casualties in this incident.",1,1,1,1,2.0,Other Crime Type,0,1,0,7,Facility/Infrastructure Attack,,,,,2,Government (General),15.0,Politician or Political Party Movement/Meeting/Rally,Popular Party,"Popular Party Office in Barakaldo, Spain",185.0,Spain,,,,,,,,,,,,,,,,,Unknown,,,,,,Unknown,0.0,,,0,,0.0,0.0,,,,,,,,,,9,Melee,21.0,Blunt Object,8.0,Incendiary,18.0,Arson/Fire,,,,,,,,,,0.0,0.0,0.0,0.0,0.0,0.0,1,3.0,Minor (likely < $1 million),,,0.0,,,,,,,,,,,,,,,,,"""Hooded Gang Firebombs Basque Courts, Party Office,” EFE, July 29, 1999.",,,CETIS,-9,-9,0,-9,
199911080001,1999,11,8,,1,1999-11-12,147,Nigeria,11,Sub-Saharan Africa,Delta,Escravos,5.609324,5.193384,1.0,0,,"11/08/1999: Fourteen unidentified youths armed with machetes boarded a Belize-owned ship near Escravos, Nigeria. They kidnapped an American and a Nigerian citizen. The hostages were freed on 11/12/1999.",1,1,1,1,2.0,Other Crime Type,0,1,0,7,Facility/Infrastructure Attack,6.0,Hostage Taking (Kidnapping),,,11,Maritime,58.0,Commercial Maritime,,Belize-owned Ship,22.0,Belize,14.0,Private Citizens & Property,71.0,Race/Ethnicity Identified,American citizen,American citizen,217.0,United States,14.0,Private Citizens & Property,67.0,Unnamed Civilian/Unspecified,Nigerian citizen,Nigerian citizen,147.0,Nigeria,Unknown,,,,,,Unknown,0.0,,,0,14.0,0.0,0.0,,,,,,,,,,9,Melee,23.0,Knife or Other Sharp Object,,,,,,,,,,,,,The perpetrators used machetes in the attack.,0.0,0.0,0.0,0.0,0.0,0.0,0,,,,,1.0,2.0,1.0,,4.0,,,0.0,,,,,,2.0,Hostage(s) released by perpetrators,2.0,,"Edward F. Mickolus, Terrorism, 1996-2001: A Chronology, Imprint Westport, CT: Greenwood Press, 2002.",,,CETIS,-9,-9,1,1,
200001040005,2000,1,4,,1,,45,Colombia,3,South America,Bogota,Bogota,4.667128,-74.106056,1.0,0,,"01/04/2000: The International Committee of the Red Cross (ICRC) headquarters in Bogota, Colombia was attacked and forty people were taken hostage. The 100 unidentified perpetrators demanded that the government and the ICRC find them new homes. The hostage-takers had left their homes during the Colombian government's war with local rebel groups. There is no information on what happened to the hostages, but the ICRC suspended operations in the country following this attack.",1,1,1,1,2.0,Other Crime Type,0,1,0,7,Facility/Infrastructure Attack,6.0,Hostage Taking (Kidnapping),,,12,NGO,62.0,International NGO,International Committee of the Red Cross (ICRC),"ICRC headquarters in Bogota, Colombia",999.0,Multinational,,,,,,,,,,,,,,,,,Unknown,,,,,,The perpetrators wanted the government and the ICRC to find them new homes.,0.0,,,0,100.0,0.0,0.0,,,,,,,,,,9,Melee,21.0,Blunt Object,,,,,,,,,,,,,Sticks were used in this attack.,0.0,0.0,0.0,0.0,0.0,0.0,0,,,,,1.0,40.0,0.0,,-99.0,,,0.0,,,,,,7.0,Unknown,-99.0,,"Edward F. Mickolus, Terrorism, 1996-2001 : A Chronology, Imprint Westport, CT: Greenwood Press, 2002.",,,CETIS,-9,-9,1,1,
200009290008,2000,9,29,,0,,99,Ivory Coast,11,Sub-Saharan Africa,Lagunes,Abidjan,5.316667,-4.033333,1.0,0,,"09/29/2000: Student activists attack the Le Liberal newspaper office in the Riviera II district in Abidjan, Cote d'Ivoire with rocks and stones. The group was called the Federation of University and High School Students of Cote d'Ivoire.",1,1,1,1,2.0,Other Crime Type,0,1,0,7,Facility/Infrastructure Attack,,,,,10,Journalists & Media,53.0,Newspaper Journalist/Staff/Facility,Le Liberal Newspaper,Newspaper offices in Riviera District,99.0,Ivory Coast,,,,,,,,,,,,,,,,,Federation of Students and Scholars of Cote d'Ivoire (FESCI),,,,,,Unknown,0.0,,,0,,,0.0,,,,,,,,,,9,Melee,21.0,Blunt Object,,,,,,,,,,,,,Rocks and stones were used in the attack.,0.0,0.0,,0.0,0.0,,1,3.0,Minor (likely < $1 million),,,0.0,,,,,,,,,,,,,,,,,"“Cote d'Ivoire: Students Attack Daily Le Liberal Paper Office,” Abidjan Le Patriote, September 30, 2000.",,,CETIS,0,0,0,0,
200601270005,2006,1,27,,0,,155,West Bank and Gaza Strip,10,Middle East & North Africa,Gaza Strip,Gaza,31.502407,34.459743,1.0,1,,"01/27/2006: Fatah-aligned protesters converged after Hamas’s electoral win and set parliament cars on fire and broke windows and air conditioning units of the Palestinian Legislative Council in Gaza City, Palestine. No injuries were reported.",1,1,1,0,,,0,1,0,7,Facility/Infrastructure Attack,,,,,2,Government (General),21.0,Government Building/Facility/Office,Palestinian Authority,Cars of parliament members and Legislative Council building,155.0,West Bank and Gaza Strip,,,,,,,,,,,,,,,,,Al-Fatah,,,,,,Unknown,1.0,,,0,,0.0,0.0,,,,,,,,,,9,Melee,21.0,Blunt Object,8.0,Incendiary,18.0,Arson/Fire,,,,,,,,,,0.0,0.0,0.0,0.0,0.0,0.0,1,4.0,Unknown,,,0.0,,,,,,,,,,,,,,,,,"“‘Abbas Out’ Demand Gaza Protesters,” AFP, January 27, 2006.","Ibrahim Barzak, “Thousands of Fatah Members Protest in Gaza,” Associated Press Online, January 27, 2006.","Khaled Abu Toameh, “Rioting Fatah Members Turn on Abbas.  PA Leader Fearing for his Life Cancels Gaza Meeting with Hamas,” The Jerusalem Post, January 29, 2006.",CETIS,0,0,0,0,
200604120026,2006,4,12,,0,,93,Indonesia,5,Southeast Asia,Jakarta,Jakarta,-6.208821,106.846046,1.0,0,,"04/12/2006: About 300 protesters of the Islamic Defenders' Front (FPI) attacked Playboy's Jakarta, Indonesia, office several days after the magazine's circulation commenced there by throwing stones at building and shattering windows. There were no casualties.",1,1,1,0,,,0,1,0,7,Facility/Infrastructure Attack,,,,,10,Journalists & Media,53.0,Newspaper Journalist/Staff/Facility,Playboy Publishing Business,Playboy Office in Jakarta,217.0,United States,,,,,,,,,,,,,,,,,Islamic Defenders' Front (FPI),,,,,,Intimidate Playboy to stop publishing in Indonesia,0.0,,,0,300.0,1.0,-9.0,,,,,,,,,-9.0,9,Melee,21.0,Blunt Object,,,,,,,,,,,,,The protesters threw stones in the attack.,0.0,0.0,0.0,2.0,0.0,0.0,1,3.0,Minor (likely < $1 million),,The storming of the building caused material damage.,0.0,,,,,,,,,,,,,,,,"The FPI members were demonstrating against a number of issues, including the magazine's American ownership, availability of the magazine in outlets that could not be monitored, and the use of the word ""Playboy"" for the magazine's title. Most employees had left the building when the attack commenced to avoid injury. --A member of Islam Defender's Front, Ali Zaini was taken into custody April 17. The building's management asked Playboy Indonesia publisher to move outside the building and police asked it to leave Jakarta. --The magazine moved its editorial offices to mostly Hindu Bali island. The editor in chief of Playboy went on trial on charges of publishing indecent material the following December.","“Police to Question FPI over Attack on 'Playboy' Office,” The Jakarta Post, April 15, 2006.","“Jakarta: Playboy Office Attacked, Muslim Organisations Demand Magazine Be Banned,” Indonesia -- OSC Report in Indonesian, April 08, 2006.","“Muslim hardliners attack office of Indonesia's Playboy magazine,” Agence France Presse -- English, April 12, 2006..",CETIS,0,1,1,1,
200612310008,2006,12,31,,0,,141,Nepal,6,South Asia,Eastern,Khadgapur,26.540192,86.590034,1.0,0,,"12/31/2006: Members of Janatantrik Terai Mukti Morcha - Jwala Singh (JTMM-J) threw rocks at and then fired upon a van belonging to Kantipur Publications in Khadopul, Saptari, Nepal. JTMM-J's Saptari coordinator claimed credit for the attack, stating that it was in response to Kantipur Publications not giving priority to news related to JTMM. The vehicle was damaged, but passengers inside were not harmed.",1,1,1,0,,,0,1,0,7,Facility/Infrastructure Attack,,,,,14,Private Citizens & Property,73.0,Vehicles/Transportation,Kantipur Publications,Van with passengers inside,141.0,Nepal,,,,,,,,,,,,,,,,,Janatantrik Terai Mukti Morcha- Jwala Singh (JTMM-J),,,,,,The publication was not giving priority to news related to JTMM-J,0.0,,,0,5.0,0.0,1.0,8.0,Personal claim,,,,,,,0.0,9,Melee,21.0,Blunt Object,5.0,Firearms,5.0,Unknown Gun Type,,,,,,,,,"The attackers first threw rocks at the vehicle, damaging it, and then later fired on the vehicle.",0.0,0.0,0.0,0.0,0.0,0.0,1,4.0,Unknown,,The front and sides of the vehicle were damaged by thrown stones.,0.0,,,,,,,,,,,,,,,,,"""JTMM opens fire on Kantipur vehicle,"" ekantipur.com, December 31, 2006",,,UMD JTMM Nepal 2012,0,0,0,0,
200704020007,2007,4,2,,0,,147,Nigeria,11,Sub-Saharan Africa,Kano,Kano,11.974328,8.50026,1.0,0,,"04/02/2007: Suspected Islamic militants attacked a private radio station in Nigeria's largest northern city, damaging its transmitter.  The militants, armed with batons and knives, hurled stones at Freedom Radio for broadcasting views that were considered heretical to the Prophet Mohammed.  No group made a claim of responsibility for the attack.",1,1,1,0,,,0,1,0,7,Facility/Infrastructure Attack,,,,,10,Journalists & Media,54.0,Radio Journalist/Staff/Facility,Freedom Radio,Radio Station,147.0,Nigeria,,,,,,,,,,,,,,,,,Unknown,,,,,,Religious,0.0,,,0,,0.0,0.0,,,,,,,,,,9,Melee,21.0,Blunt Object,9.0,Melee,23.0,Knife or Other Sharp Object,,,,,,,,,,0.0,0.0,0.0,0.0,0.0,0.0,1,3.0,Minor (likely < $1 million),,,0.0,,,,,,,,,,,,,,,,"The protesters, armed with batons and knives, hurled stones at Freedom Radio for broadcasting at the weekend what they considered as conflicting views on the Eid-el Maloud, the Islamic festival marking the birthday of Prophet Mohammed","Staff, “Suspected Islamic Militants Attack Private Radio Station in Nigeria,” Agence France Presse, April 2, 2007.",,,CETIS,-9,-9,0,-9,
200706100012,2007,6,10,,0,,141,Nepal,6,South Asia,Eastern,Chandravata,26.795702,86.2971,1.0,0,,"06/10/2007: 12 Nepalese civilians were wounded and a tour bus, two trucks, two passenger busses, power and telephone lines, and a jeep were destroyed when an unknown number of Young Communist League (Maoist rebel) perpetrators stopped traffic using knives, swords, and improvised explosive devices (IEDs), forced the passengers out of vehicles to destroy them, and attacked telephone and power poles in Chandravata, Kapilvastu Province, Nepal.  No claim of responsibility was reported.",1,1,1,0,,,0,1,0,7,Facility/Infrastructure Attack,2.0,Armed Assault,,,14,Private Citizens & Property,71.0,Race/Ethnicity Identified,Nepalese civilians,Unknown,141.0,Nepal,16.0,Telecommunication,90.0,Telephone/Telegraph,Nepal Telephone Industry,Telephone poles in Chandravata.,141.0,Nepal,21.0,Utilities,107.0,Electricity,Nepal Electricity Industry,Power poles in Chandravata.,141.0,Nepal,Young Communist League,,,,,,The attacks were in protest the relocation of a Nepalese Army camp to the area.,0.0,,,0,,,0.0,,,,,,,,,,9,Melee,23.0,Knife or Other Sharp Object,9.0,Melee,23.0,Knife or Other Sharp Object,6.0,Explosives,16.0,Unknown Explosive Type,,,,,"Perpetrators used knives, swords, and improvised explosive devices (IEDs).",0.0,0.0,0.0,12.0,0.0,0.0,1,2.0,Major (likely >= $1 million but < $1 billion),,"A tour bus, two trucks, two passenger busses, power and telephone lines, and a jeep were destroyed.",0.0,,,,,,,,,,,,,,,,The violence came as local Maoists called an indefinite general strike on June 9 to protest the relocation of a Nepalese Army camp to the area.,"“Maoists go on rampage during strike to oppose army post,” Press Trust of India, June 10, 2007.","“Nepal Maoists torch vehicles in dispute over army camp,” ekantipur.com (Kathmandu), June 10, 2007.",,CETIS,0,0,0,0,
200806030015,2008,6,3,,0,,92,India,6,South Asia,Chhattisgarh,Narayanpur district,19.723535,81.242411,3.0,0,"The attack occurred in Mahimangwadi and Chotedonagar area on the Orcha Road in Narayanpur, Chhattisgarh, India","06/03/2008: On Tuesday, 25 - 30 Communist Party of India Maoist militants pulled down 14 electricity poles in the Mahimangwadi and Chotedonagar area on the Orcha Road in Narayanpur, Chhattisgarh, India. No casualties were reported.",1,1,1,0,,,0,1,0,7,Facility/Infrastructure Attack,,,,,21,Utilities,107.0,Electricity,,Fourteen electricity poles,92.0,India,,,,,,,,,,,,,,,,,Communist Party of India - Maoist (CPI-Maoist),,,,,,The specific motive for the attack is unknown.,1.0,,,0,27.0,0.0,0.0,,,,,,,,,,9,Melee,21.0,Blunt Object,,,,,,,,,,,,,Iron rods were used to dig up the base of the poles.,0.0,0.0,0.0,0.0,0.0,0.0,1,4.0,Unknown,,An unknown amount of damage was done to the electricity poles.,0.0,,,,,,,,,,,,,,,,,"South Asia Terrorism Portal, ""Maoists Pull Down 14 Electricity Poles in Chhattisgarh,"" South Asia Terrorism Portal, http://www.satp.org/satporgtp/detailed_news.asp?date1=6/5/2008#10http://www.satp.org/satporgtp/detailed_news.asp?date1=6/5/2008#10.","Lexis Nexis, ""Maoists Uproot Electric Lines to 50 Central India Villages,"" BBC Monitoring South Asia, June 4, 2008.",,ISVG,0,0,0,0,
200810190018,2008,10,19,,0,,15,Austria,8,Western Europe,Salzburg,Salzburg,47.80949,13.05501,1.0,0,"The arson attack took place at the Turkish Consulate in Salzburg, Salzburg province, Austria","10/19/2008: On Sunday, suspected Kurdistan Workers Party (PKK) rebels broke into the Turkish consulate by throwing a rock through the window of the building and then set fire to the Turkish Consulate in Salzburg, Salzburg province, Austria, using a Molotov cocktail. The arson attack caused an unknown amount of damage to the Turkish Consulate building. No casualties were reported and no claim of responsibility was made for the incident.",1,1,1,0,,,0,1,0,7,Facility/Infrastructure Attack,,,,,7,Government (Diplomatic),46.0,Embassy/Consulate,Turkish Consulate,The Turkish Consulate,209.0,Turkey,,,,,,,,,,,,,,,,,Kurdistan Workers' Party (PKK),,,,,,Police speculated that the arson attack was carried out for political reasons.,1.0,,,0,-99.0,0.0,0.0,,,,,,,,,,9,Melee,21.0,Blunt Object,8.0,Incendiary,19.0,Molotov Cocktail/Petrol Bomb,,,,,,,,,A rock was used in the melee attack and a molotov cocktail was used in the arson attack.,0.0,0.0,0.0,0.0,0.0,0.0,-9,,,,The arson attack caused an unknown amount of damage to the Turkish Consulate building.,0.0,,,,,,,,,,,,,,,,,"International Herald Tribune, ""Arson Attack on Turkish Embassy in Finland,"" International Herald Tribune, October 21, 2008.","Die Press, ""Austria: Series of Attacks on Turkish, Kurdish Facilities Continues,"" World News Connection, Die Press, October 27, 2008.",,ISVG,1,0,1,1,
200810250013,2008,10,25,,0,,15,Austria,8,Western Europe,Salzburg,Salzburg,47.80949,13.05501,1.0,0,"The infrastructure attack took place at a Turkish club with a stone in the district of Vogelweiderstrasse, Salzburg, Salzburg province,  Austria.","10/25/2008: On Saturday night, suspected Kurdistan Workers Party (PKK) supporters smashed the window of a Turkish club with a stone in the district of Vogelweiderstrasse, Salzburg, Salzburg province,  Austria. The infrastructure attack caused minor damage to the club and no casualties were reported. No claim of responsibility was made for the incident, however the Interior Ministry suspected that PKK supporters were responsible.",1,1,1,0,,,0,1,0,7,Facility/Infrastructure Attack,,,,,1,Business,11.0,Entertainment/Cultural/Stadium/Casino,,A Turkish club,209.0,Turkey,,,,,,,,,,,,,,,,,Kurdistan Workers' Party (PKK),,,,,,The specific motive for the attack is unknown.,1.0,,,0,-99.0,0.0,0.0,,,,,,,,,,9,Melee,21.0,Blunt Object,,,,,,,,,,,,,A stone was used in the melee attack.,0.0,0.0,0.0,0.0,0.0,0.0,1,3.0,Minor (likely < $1 million),,The infrastructure attack caused minor damage to the club.,0.0,,,,,,,,,,,,,,,,,"Die Presse, ""Series of Attacks on Turkish, Kurdish Facilities Continues,"" World News Connection, Die Presse, October 27, 2008.","BBC Monitoring Europe, ""Attacks on Turkish, Kurdish Facilities in Austria Continue,"" Lexis Nexis, BBC Monitoring Europe, October 28, 2008.",,ISVG,1,0,1,1,
201002190001,2010,2,19,,1,,41,Central African Republic,11,Sub-Saharan Africa,Mbomou,Rafai,4.971667,23.932318,1.0,0,The attack took place in Rafai.,"02/19/2010: On Friday evening, in Rafai, Mbomou, Central African Republic, assailants armed with clubs and machetes attacked the village and assaulted the occupants, killing two civilians, wounding one soldier and 13 civilians, and looting possessions. The assailants also raided a church, kidnapping at least 40 civilians (2 French; 38 Congolese) and ransacking and damaging the church. The assailants released the French victims soon after their capture. The status of the remaining hostages was unknown. No group claimed responsibility, although it was widely believed the Lord's Resistance Army (LRA) was responsible.",1,1,1,0,,,0,1,0,7,Facility/Infrastructure Attack,2.0,Armed Assault,6.0,Hostage Taking (Kidnapping),14,Private Citizens & Property,75.0,Village/City/Town/Suburb,,The village of Rafai,41.0,Central African Republic,,,,,,,,,,,,,,,,,Lord's Resistance Army (LRA),,,,,,The specific motive for the attack is unknown.,1.0,,,0,-99.0,0.0,0.0,,,,,,,,,,9,Melee,23.0,Knife or Other Sharp Object,9.0,Melee,21.0,Blunt Object,,,,,,,,,Clubs and machetes were used in the attack.,0.0,0.0,0.0,0.0,0.0,0.0,1,3.0,Minor (likely < $1 million),,The church was damaged in the attack.,1.0,40.0,0.0,,-99.0,,,-9.0,,,,,,2.0,Hostage(s) released by perpetrators,2.0,The status of the remaining 38 hostages was unknown.,"Jane’s Intelligence, “LRA Militants Attack City of Rafai in CAR,” Terrorism Watch Report, February 22, 2010.","Sudan Tribune, ""Ugandan Rebels Kill Two, Abduct 30 in Eastern Central African Republic,"" LexisNexis Academic, Sudan Tribune, February 21, 2010.","National Counterterrorism Center, ""Two Civilians Killed, One Soldier, 13 Civilians Wounded in Assault, 40 Civilians Kidnapped by Suspected LRA in Rafai, Mbomou, Central African Republic,"" Worldwide Incidents Tracking System, July 2, 2010.",ISVG,1,1,0,1,
201106010010,2011,6,1,,0,,209,Turkey,10,Middle East & North Africa,Sirnak,Cizre district,37.332695,42.104851,3.0,0,,"06/01/2011: On Wednesday, in the Cizre sub district of Sirnak, Turkey, Turkey, a group of 100 Kurdistan Workers Party (PKK) members attacked the 13th century Red Madrassa with stones. The PKK members were attending a concert organized by the Peace and Democracy Party on a field near the building. Reports from the region said the attackers broke into the building and damaged the interior as well. All of the windows on the building were shattered in the attack, and no group has claimed responsibility.",1,1,1,0,,,0,1,0,7,Facility/Infrastructure Attack,,,,,15,Religious Figures/Institutions,87.0,Affiliated Institution,Red Madrassa,The 13th century Red Madrassa,209.0,Turkey,,,,,,,,,,,,,,,,,Kurdistan Workers' Party (PKK),,,,,,The specific motive for the attack is unknown.,1.0,,,0,100.0,0.0,0.0,,,,,,,,,,9,Melee,21.0,Blunt Object,,,,,,,,,,,,,Stones were used in the attack.,0.0,0.0,0.0,0.0,0.0,0.0,1,3.0,Minor (likely < $1 million),,The attack shattered all the windows and damaged the interior of the Red Madrassa.,0.0,,,,,,,,,,,,,,,,,"Today's Zaman, ""PKK Supporters Attack Historic Shrine in Cizre,"" Today's Zaman, June 1, 2011, http://www.todayszaman.com/news-245846--pkk-supporters-attack-historic-shrine-in-cizre.html.","PKK Terrorism, ""PKK Supporters Attack Historic Shrine in Cizre,"" http://www.pkkterrorism.org/2011/06/01/pkk-supporters-attack-historic-shrine-in-cizre/ (June 1, 2011).",,ISVG,0,0,0,0,
201211150024,2012,11,15,,0,,158,Paraguay,3,South America,San Pedro,Manitoba,-23.565803,-56.550281,1.0,0,,"11/15/2012: Assailants armed with a saw attempted to cut down a Paraguay National Administration of Electricity (ANDE) power transmission tower in Manitoba, San Pedro department, Paraguay. There were no reported casualties in the attack. No group claimed responsibility; however, sources attributed the incident to the Paraguayan People's Army (EPP).",1,1,1,0,,,0,1,0,7,Facility/Infrastructure Attack,,,,,21,Utilities,107.0,Electricity,Paraguay National Administration of Electricity (ANDE),Power Transmission Tower,158.0,Paraguay,,,,,,,,,,,,,,,,,Paraguayan People's Army (EPP),,,,,,,0.0,,,0,-99.0,0.0,0.0,,,,,,,,,,9,Melee,23.0,Knife or Other Sharp Object,,,,,,,,,,,,,A saw was used in the attack.,0.0,0.0,0.0,0.0,0.0,0.0,0,,,,,0.0,,,,,,,,,,,,,,,,,"""EPP attacks to Pylons,"" ultimahora.com, August 31, 2015.",,,START Primary Collection,0,0,0,0,
201305220034,2013,5,22,,0,,603,United Kingdom,8,Western Europe,England,Braintree,51.879564,0.552725,1.0,0,,"05/22/2013: An assailant threw a smoke grenade into the Al Falah Braintree Islamic Centre in Braintree town, England, United Kingdom. The assailant then brandished knives and shouted, ""Where is your Allah now?"" There were no reported injuries or damages resulting from the attack. No group claimed responsibility for the incident, but the assailant was arrested before he had a chance to flee.",1,1,1,0,,,0,0,0,7,Facility/Infrastructure Attack,,,,,15,Religious Figures/Institutions,86.0,Place of Worship,Al Falah Braintree Islamic Centre,Mosque,216.0,Great Britain,,,,,,,,,,,,,,,,,Unknown,,,,,,,0.0,,,0,1.0,1.0,0.0,,,,,,,,,,9,Melee,23.0,Knife or Other Sharp Object,12.0,Other,,,,,,,,,,,A smoke bomb and two knives were used in the attack.,0.0,0.0,0.0,0.0,0.0,0.0,0,,,,,0.0,,,,,,,,,,,,,,,,,"""Braintree Mosque in shock after attack,"" Essex Enquirer, May 29, 2013.",,,START Primary Collection,-9,-9,1,1,
201310140032,2013,10,14,,0,,160,Philippines,5,Southeast Asia,Surigao del Sur,Cagwait,8.893579,126.306719,1.0,0,,"10/14/2013: Assailants uprooted rubber tree seedlings in Cagwait district, Surigao del Sur province, Philippines. There were no reported casualties in the attack. No group claimed responsibility; however, authorities attributed the attack to the New People's Army (NPA).",1,1,1,0,,,0,1,0,7,Facility/Infrastructure Attack,,,,,1,Business,9.0,Farm/Ranch,Bacolod Upland Farmers Association,Rubber Seedlings,160.0,Philippines,,,,,,,,,,,,,,,,,New People's Army (NPA),,,,,,,0.0,,,0,-99.0,0.0,0.0,,,,,,,,,,9,Melee,22.0,"Hands, Feet, Fists",,,,,,,,,,,,,,0.0,0.0,0.0,0.0,0.0,0.0,1,3.0,Minor (likely < $1 million),22333.74,Seven thousand seedlings were damaged in this attack.,0.0,,,,,,,,,,,,,,,,,"""Communist rebels cut farmers' rubber trees in Surigao del Sur,"" Philippine Star, October 17, 2013.",,,START Primary Collection,0,0,0,0,
201311030037,2013,11,3,,0,,1003,Kosovo,9,Eastern Europe,Kosovska Mitrovica,Mitrovica,42.886066,20.874016,1.0,0,,"11/03/2013: Assailants attacked a polling station in a primary school with tear gas and other weapons in Mitrovica city, Kosovska Mitrovica district, Kosovo. Ballot boxes were destroyed and at least one person was injured in the violence. No group claimed responsibility for the incident.",1,1,1,0,,,0,1,0,7,Facility/Infrastructure Attack,,,,,2,Government (General),19.0,Election-related,Central Election Commission (CEC),Polling Stations,1003.0,Kosovo,,,,,,,,,,,,,,,,,Unknown,,,,,,"The specific motive is unknown; however, sources noted that many Serbs view the elections as a way of validating the ethnic Albanian leadership and a means of cutting Kosovo off from Serbia.",0.0,,,0,-99.0,0.0,0.0,,,,,,,,,,9,Melee,27.0,Unknown Weapon Type,11.0,Sabotage Equipment,,,2.0,Chemical,,,,,,,Tear gas canisters were used in the attack.,0.0,0.0,0.0,1.0,0.0,0.0,1,3.0,Minor (likely < $1 million),-99.0,Ballot boxes and other election materials were damaged in this attack.,0.0,,,,,,,,,,,,,,,,,"""Kosovo poll violence blow to EU hopeful Belgrade,"" Agence France Presse -- English, November 4, 2013.","""NATO, EU condemn Kosovo poll violence, accord challenged,"" Reuters, November 4, 2013.","""Violence mars Kosovo local polls,"" Al Jazeera, November 3, 2013.",START Primary Collection,-9,-9,0,-9,
201405040041,2014,5,4,,0,,214,Ukraine,9,Eastern Europe,Odessa,Odessa,46.481438,30.72331,1.0,0,,"05/04/2014: Assailants stormed police headquarters in Odessa city, Odessa oblast, Ukraine. There were no reports of casualties in the attack, but windows were broken. No group claimed responsibility for the incident; however, sources attributed it to the Pro-Russia militia. Sources reported that the assailants were seeking the release of people who had been arrested in connection with the violence in Odessa on May 2, 2014.",1,1,1,0,,,0,1,0,7,Facility/Infrastructure Attack,,,,,3,Police,22.0,"Police Building (headquarters, station, school)",Militsiya,Odessa Police Station,214.0,Ukraine,,,,,,,,,,,,,,,,,Pro-Russia Militia,,,,,,,0.0,,,0,3000.0,0.0,0.0,,,,,,,,,,9,Melee,21.0,Blunt Object,,,,,,,,,,,,,Sticks were used in the attack.,0.0,0.0,0.0,0.0,0.0,0.0,1,3.0,Minor (likely < $1 million),-99.0,A police station was damaged in this attack.,0.0,,,,,,,,,,,,,,,,,"""AFP: Around 3,000 Pro-Russian Militants Attack Police HQ in Ukraine's Odessa,"" AFP (North European Service), May 4, 2014.","""Ukraine police station in Odessa attacked,"" Al Jazeera, May 4, 2014.","""Pro-Russians storm police station in Odessa, Ukraine,"" Turkish Press, May 4, 2014.",START Primary Collection,0,0,0,0,
201407220028,2014,7,22,,0,,92,India,6,South Asia,Bihar,Mirganj,26.366837,84.337067,1.0,0,,"07/22/2014: Assailants attacked a mobile phone tower in Mirganj village, Gopalganj district, Bihar state, India. A watchman was injured and the tower was damaged in the attack. No group claimed responsibility; however, a source attributed the incident to Maoists.",1,1,1,0,,,0,1,0,7,Facility/Infrastructure Attack,,,,,16,Telecommunication,90.0,Telephone/Telegraph,Unknown,Cell Phone Tower,92.0,India,,,,,,,,,,,,,,,,,Maoists,,,,,,,0.0,,,0,-99.0,0.0,0.0,,,,,,,,,,9,Melee,27.0,Unknown Weapon Type,,,,,,,,,,,,,,0.0,0.0,0.0,1.0,0.0,0.0,1,4.0,Unknown,-99.0,A mobile phone tower was damaged in this attack.,0.0,,,,,,,,,,,,,,,,,"""Rebels blow up cop's ancestral home,"" Calcutta Telegraph, July 24, 2014.",,,START Primary Collection,-9,-9,0,-9,
201409250028,2014,9,25,,0,,122,Maldives,6,South Asia,Male,Male,4.175278,73.508889,1.0,0,,"09/25/2014: Assailants attacked the Minivan News office building in Male city, Male province, Maldives. There were no reported casualties; however, security cameras were damaged in the attack. No group claimed responsibility for the incident; however, sources attributed the attack to Muslim fundamentalists.",1,1,1,0,,,0,1,0,7,Facility/Infrastructure Attack,,,,,10,Journalists & Media,56.0,Other (including online news agencies),Minivan News,Office,122.0,Maldives,,,,,,,,,,,,,,,,,Muslim extremists,,,,,,"The specific motive is unknown; however, sources suspected that the Minivan News office was targeted because the assailants believed it was not Islamic.",0.0,,,0,3.0,1.0,0.0,,,,,,,,,,9,Melee,23.0,Knife or Other Sharp Object,,,,,,,,,,,,,A machete was used in the attack.,0.0,0.0,0.0,0.0,0.0,0.0,1,3.0,Minor (likely < $1 million),-99.0,Two security cameras and a building were damaged in this attack.,0.0,,,,,,,,,,,,,,,,,"""Maldives: Three Arrested in Connection With Minivan News Journalist's Disappearance,"" Minivan News Online, September 28, 2014.",,,START Primary Collection,-9,-9,0,-9,
201511110065,2015,11,11,,0,,603,United Kingdom,8,Western Europe,Northern Ireland,Belfast,54.607711,-5.95621,1.0,0,The incident occurred along Crumlin Road in the Ardoyne neighborhood.,"11/11/2015: Assailants attacked a house on Crumlin Road in Ardoyne neighborhood, Belfast, Northern Ireland, United Kingdom. There were no reported casualties in the attack, but the house was damaged. No group claimed responsibility for the incident; however, sources attributed the attack to loyalists.",1,1,1,0,,,0,1,0,7,Facility/Infrastructure Attack,,,,,14,Private Citizens & Property,76.0,House/Apartment/Residence,Not Applicable,House,233.0,Northern Ireland,,,,,,,,,,,,,,,,,Loyalists,,,,,,"The specific motive is unknown; however, sources suspected that the attack may have been part of a larger trend of sectarian violence in Northern Ireland.",0.0,,,0,3.0,0.0,0.0,,,,,,,,,,9,Melee,21.0,Blunt Object,,,,,,,,,,,,,Hammers and crowbars were used in the attack.,0.0,0.0,0.0,0.0,0.0,0.0,1,3.0,Minor (likely < $1 million),-99.0,A house was damaged in this attack.,0.0,,,,,,,,,,,,,,,,,"""Attack on Catholic home blamed on loyalist gang,"" The Irish News, November 12, 2015.",,,START Primary Collection,0,0,1,1,
201512160053,2015,12,16,,0,,78,Greece,8,Western Europe,Attica,Athens,37.997492,23.762727,1.0,0,The incident occurred in the northern Marousi neighborhood.,"12/16/2015: Assailants attacked the Teiresias offices in Marousi neighborhood, Athens, Greece. No one was injured, although company property was damaged in the attack. Rubicon (Rouvikonas) claimed responsibility for the incident and stated that the attack was carried out in opposition to the government and its new policies regarding taxes.",1,1,1,0,,,0,1,0,7,Facility/Infrastructure Attack,,,,,1,Business,,,Teiresias,Offices,78.0,Greece,,,,,,,,,,,,,,,,,Rubicon (Rouvikonas),,,,,,Rubicon (Rouvikonas) claimed responsibility for the incident and stated that the attack was carried out in opposition to the government and its new policies regarding taxes.,0.0,,,0,14.0,0.0,1.0,7.0,"Posted to website, blog, etc.",,,,,,,,9,Melee,21.0,Blunt Object,,,,,,,,,,,,,Hammers and sledgehammers were used in the attack.,0.0,0.0,0.0,0.0,0.0,0.0,1,3.0,Minor (likely < $1 million),-99.0,Unspecified property was damaged in this attack.,0.0,,,,,,,,,,,,,,,,,"""Anarchists raid Teiresias HQ, no injuries,"" EKathimerini.com, December 16, 2015.","""Seven arrested for vandalizing offices as Rouvikonas claims responsibility,"" EKathimerini.com, December 16, 2015.",,START Primary Collection,0,0,0,0,
201606230050,2016,6,23,,0,,142,Netherlands,8,Western Europe,South Holland,Dordrecht,51.813298,4.690093,1.0,0,,"06/23/2016: Assailants attacked a Turkish mosque in Dodrecht, Netherlands. At least two people were wounded in the attack. No group claimed responsibility for the incident; however, sources attributed the attack to the Kurdistan Workers' Party (PKK).",1,1,1,0,,,0,1,0,7,Facility/Infrastructure Attack,,,,,15,Religious Figures/Institutions,86.0,Place of Worship,Unknown,Mosque,142.0,Netherlands,,,,,,,,,,,,,,,,,Kurdistan Workers' Party (PKK),,,,,,,0.0,,,0,15.0,0.0,0.0,,,,,,,,,,9,Melee,21.0,Blunt Object,,,,,,,,,,,,,Iron bars were used in the attack.,0.0,0.0,0.0,2.0,0.0,0.0,1,3.0,Minor (likely < $1 million),-99.0,A mosque was damaged in this attack.,0.0,,,,,,,,,,,,,,,,,"""Turkish mosque vandalized in Netherlands,"" Anadolu Ajansi, June 24, 2016.","""Turkish mosque vandalized in the Netherlands,"" Daily Sabah, June 24, 2016.",,START Primary Collection,1,1,0,1,
201607290033,2016,7,29,,0,,78,Greece,8,Western Europe,Attica,Athens,37.997492,23.762727,1.0,0,The incident occurred in the Petralona neighborhood.,"07/29/2016: Assailants attacked a SYRIZA office in Petralona, Athens, Greece. There were no reported casualties. Anarchists claimed responsibility for the incident and stated that the attack was carried out in retaliation for various operations by authorities.",1,1,1,0,,,0,1,0,7,Facility/Infrastructure Attack,,,,,14,Private Citizens & Property,84.0,Political Party Member/Rally,Coalition of the Radical Left (SYRIZA),Party Offices,78.0,Greece,,,,,,,,,,,,,,,,,Anarchists,,,,,,Anarchists claimed responsibility for the incident and stated that the attack was carried out in retaliation for various operations by authorities.,0.0,,,0,-99.0,0.0,1.0,7.0,"Posted to website, blog, etc.",,,,,,,,9,Melee,21.0,Blunt Object,12.0,Other,,,,,,,,,,,"Wood, stones, and sledgehammers were used in the attack.",0.0,0.0,0.0,0.0,0.0,0.0,1,3.0,Minor (likely < $1 million),-99.0,Five windows were damaged in this attack.,0.0,,,,,,,,,,,,,,,,,"""Greece: Anarchists Attach SYRIZA-ANEL Offices In Retaliation For Police Operations In Thessaloniki,"" I Kathimerini, July 30, 2016.",,,START Primary Collection,-9,-9,0,-9,
201607290034,2016,7,29,,0,,78,Greece,8,Western Europe,Central Macedonia,Thessaloniki,40.582662,22.952974,1.0,0,The incident occurred in the Kalamaria neighborhood.,"07/29/2016: Assailants attacked a SYRIZA office in Thessaloniki, Central Macedonia, Greece. There were no reported casualties. No group claimed responsibility for the incident; however, sources attributed the attack to anarchists.",1,1,1,0,,,0,1,0,7,Facility/Infrastructure Attack,,,,,14,Private Citizens & Property,84.0,Political Party Member/Rally,Coalition of the Radical Left (SYRIZA),Party Office,78.0,Greece,,,,,,,,,,,,,,,,,Anarchists,,,,,,"The specific motive is unknown; however, sources posited that the attack was carried out in retaliation for various operations by authorities.",0.0,,,0,-99.0,0.0,0.0,,,,,,,,,,9,Melee,21.0,Blunt Object,,,,,,,,,,,,,Iron bars and hammers were used in the attack.,0.0,0.0,0.0,0.0,0.0,0.0,1,3.0,Minor (likely < $1 million),-99.0,An office was damaged in this attack.,0.0,,,,,,,,,,,,,,,,,"""Greece: Anarchists Attach SYRIZA-ANEL Offices In Retaliation For Police Operations In Thessaloniki,"" I Kathimerini, July 30, 2016.",,,START Primary Collection,-9,-9,0,-9,
201609210135,2016,9,21,,0,,603,United Kingdom,8,Western Europe,Northern Ireland,Larne,54.855819,-5.816376,1.0,0,,"09/21/2016: Assailants attacked a house in Larne, Northern Ireland, United Kingdom. There were no reported casualties in the attack. This was one of two related attacks on this day. No group claimed responsibility for the incident.",1,1,1,0,,,1,1,0,7,Facility/Infrastructure Attack,,,,,14,Private Citizens & Property,76.0,House/Apartment/Residence,Not Applicable,House,233.0,Northern Ireland,,,,,,,,,,,,,,,,,Unknown,,,,,,"The specific motive is unknown; however, sources suspected that the attack may have been part of a larger trend of sectarian violence in Northern Ireland.",0.0,,,0,-99.0,0.0,0.0,,,,,,,,,,9,Melee,23.0,Knife or Other Sharp Object,,,,,,,,,,,,,Hatchets were used in the attack.,0.0,0.0,0.0,0.0,0.0,0.0,1,3.0,Minor (likely < $1 million),-99.0,Unspecified property was damaged in this attack.,0.0,,,,,,,,,,,,,,,,,"""Larne children and pregnant mum's hatchet attack terror,"" Belfast Telegraph, September 22, 2016.","""MASKED MEN GO ON HATCHET RAMPAGE; Terror as windows & doors smashed,"" The Mirror (The Daily Mirror and The Sunday Mirror), September 22, 2016.",,START Primary Collection,-9,-9,1,1,"201609210135, 201609210136"
201609210136,2016,9,21,,0,,603,United Kingdom,8,Western Europe,Northern Ireland,Larne,54.855784,-5.815518,1.0,0,,"09/21/2016: Assailants attacked a house in Larne, Northern Ireland, United Kingdom. There were no reported casualties in the attack. This was one of two related attacks on this day. No group claimed responsibility for the incident.",1,1,1,0,,,1,1,0,7,Facility/Infrastructure Attack,,,,,14,Private Citizens & Property,76.0,House/Apartment/Residence,Not Applicable,House,233.0,Northern Ireland,,,,,,,,,,,,,,,,,Unknown,,,,,,"The specific motive is unknown; however, sources suspected that the attack may have been part of a larger trend of sectarian violence in Northern Ireland.",0.0,,,0,-99.0,0.0,0.0,,,,,,,,,,9,Melee,23.0,Knife or Other Sharp Object,,,,,,,,,,,,,Hatchets were used in the attack.,0.0,0.0,0.0,0.0,0.0,0.0,1,3.0,Minor (likely < $1 million),-99.0,Unspecified property was damaged in this attack.,0.0,,,,,,,,,,,,,,,,,"""Larne children and pregnant mum's hatchet attack terror,"" Belfast Telegraph, September 22, 2016.","""MASKED MEN GO ON HATCHET RAMPAGE; Terror as windows & doors smashed,"" The Mirror (The Daily Mirror and The Sunday Mirror), September 22, 2016.",,START Primary Collection,-9,-9,1,1,"201609210135, 201609210136"
201705240049,2017,5,24,,0,,78,Greece,8,Western Europe,Attica,Athens,37.997492,23.762727,1.0,0,The incident occurred at the University of Athens.,"05/24/2017: Assailants armed with axes, hammers, and knives attacked the education faculty at University of Athens in Athens, Attica, Greece. There were no reported casualties. No group claimed responsibility for the incident; however, sources attributed the attack to anarchists.",1,1,1,0,,,0,1,0,7,Facility/Infrastructure Attack,,,,,8,Educational Institution,49.0,School/University/Educational Building,National and Kapodistrian University of Athens,Education Faculty,78.0,Greece,,,,,,,,,,,,,,,,,Anarchists,,,,,,,0.0,,,0,20.0,0.0,0.0,,,,,,,,,,9,Melee,23.0,Knife or Other Sharp Object,9.0,Melee,21.0,Blunt Object,,,,,,,,,"Axes, knives, and hammers were used in the attack.",0.0,0.0,0.0,0.0,0.0,0.0,1,3.0,Minor (likely < $1 million),-99.0,Posters were damaged in this attack.,0.0,,,,,,,,,,,,,,,,,"""Anarchists upset student union elections, one hurt,"" EKathimerini.com, May 24, 2017.",,,START Primary Collection,-9,-9,0,-9,
201712070018,2017,12,7,,0,,142,Netherlands,8,Western Europe,North Holland,Amsterdam,52.365857,4.895405,1.0,0,The incident occurred in southern Amsterdam.,"12/07/2017: An assailant armed with a bat attacked a kosher restaurant in southern Amsterdam, Netherlands. The assailant smashed the windows of the restaurant and then entered the building and removed an Israeli flag. There were no reported casualties in the incident. Saleh Ali, a former fighter in Syria and a Palestinian extremist, claimed responsibility and stated that he carried out the incident in order to ""protest.""",1,1,1,0,,,0,1,0,7,Facility/Infrastructure Attack,,,,,1,Business,2.0,Restaurant/Bar/Café,Unknown,Kosher Restaurant,142.0,Netherlands,,,,,,,,,,,,,,,,,Palestinian Extremists,,,,,,"A Palestinian extremist claimed responsibility for the incident and stated that he carried out the attack in order to ""protest."" Sources also noted that the assailant was carrying a Palestinian flag and removed the Israeli flag from the restaurant.",0.0,,,0,1.0,1.0,1.0,8.0,Personal claim,,,,,,,,9,Melee,21.0,Blunt Object,,,,,,,,,,,,,A bat was used in the attack.,0.0,0.0,0.0,0.0,0.0,0.0,1,3.0,Minor (likely < $1 million),-99.0,The assailant broke several windows and broke into a restaurant.,0.0,,,,,,,,,,,,,,,,,"""Amsterdam kosher eatery assailant reportedly was ex-fighter from Syria,"" JTA, December 13, 2017.","""Palestinian who vandalized Amsterdam kosher eatery says he's not anti-Semitic,"" JTA, December 8, 2017.",,START Primary Collection,1,1,0,1,
201808260015,2018,8,25,,0,,78,Greece,8,Western Europe,Attica,Athens,37.997492,23.762727,1.0,0,The incident occurred in the Marousi area of the city,"08/25/2018: Assailants attacked the offices of Mytilineos company in Marousi, Athens, Greece. There were no reported injuries, though the building was damaged in the attack. Rubicon (Rouvikonas) claimed responsibility for the incident and alleged that Vangelis Mytilineos had created his ""empire by ripping natural resources, exploiting thousands of people who work for him and - as he has the right connections - making some very profitable deals especially with the national power company.""",1,1,1,0,,,0,1,0,7,Facility/Infrastructure Attack,,,,,1,Business,,,Mytilineos Holdings,Offices,78.0,Greece,,,,,,,,,,,,,,,,,Rubicon (Rouvikonas),,,,,,"Rubicon (Rouvikonas) claimed responsbility for the incident and alleged that Vangelis Mytilineos had created his ""empire by ripping natural resources, exploiting thousands of people who work for him and - as he has the right connections - making some very profitable deals especially with the national power company.""",0.0,,,0,4.0,0.0,1.0,6.0,Video,,,,,,,,9,Melee,21.0,Blunt Object,,,,,,,,,,,,,Sledgehammers were used in the attack.,0.0,0.0,0.0,0.0,0.0,0.0,1,3.0,Minor (likely < $1 million),-99.0,The front of a building was damaged in this attack.,0.0,,,,,,,,,,,,,,,,,"""State PAO: Greece: Daily Media Roundup Monday August 27, 2018,"" US Embassy Public Affairs Office, August 27, 2018.",,,START Primary Collection,0,0,0,0,
201809170013,2018,9,17,,0,,78,Greece,8,Western Europe,Attica,Athens,37.997492,23.762727,1.0,0,The incident occurred in the Psychiko area of the city.,"09/17/2018: Assailants attacked the Iranian Embassy in Psychiko, Athens, Greece. There were no reported casualties in the assault. Rubicon (Rouvikonas) claimed responsibility for the incident and stated that the attack was carried out in retaliation for the execution of Kurdish detainees held in Iran on September 8, 2018.",1,1,1,0,,,0,1,0,7,Facility/Infrastructure Attack,,,,,7,Government (Diplomatic),46.0,Embassy/Consulate,Islamic Republic of Iran Ministry of Foreign Affairs,Embassy,94.0,Iran,,,,,,,,,,,,,,,,,Rubicon (Rouvikonas),,,,,,"Rubicon (Rouvikonas) claimed responsibility for the incident and stated that the attack was carried out in retaliation for the execution of Kurdish detainees held in Iran on September 8, 2018.",0.0,,,0,-99.0,0.0,1.0,7.0,"Posted to website, blog, etc.",,,,,,,,9,Melee,21.0,Blunt Object,,,,,,,,,,,,,Sledgehammers were used in the attack.,0.0,0.0,0.0,0.0,0.0,0.0,1,3.0,Minor (likely < $1 million),-99.0,The security booth of an embassy was damaged in this attack.,0.0,,,,,,,,,,,,,,,,,"""Police fail to avert Rouvikonas attack on Embassy of Iran,"" EKathimerini.com, September 18, 2018.","""Iran's embassy in Athens attacked,"" Global English (Middle East and North Africa Financial Network), September 17, 2018.",,START Primary Collection,0,1,1,1,
201812310034,2018,12,31,,0,,603,United Kingdom,8,Western Europe,Northern Ireland,Belfast,54.607711,-5.95621,1.0,0,The incident occurred along Dermott Hill Parade.,"12/31/2018: Assailants armed with sledgehammers attacked a house along Dermott Hill Parade in Belfast, Northern Ireland, United Kingdom. There were no reported casualties. This was one of two related incidents targeting the same family in Belfast overnight. No group claimed responsibility; however, sources attributed the attacks to dissident Republicans.",0,1,1,1,2.0,Other Crime Type,1,1,0,7,Facility/Infrastructure Attack,,,,,14,Private Citizens & Property,76.0,House/Apartment/Residence,Not Applicable,Residence,233.0,Northern Ireland,,,,,,,,,,,,,,,,,Dissident Republicans,,,,,,,0.0,,,0,-99.0,0.0,0.0,,,,,,,,,,9,Melee,21.0,Blunt Object,,,,,,,,,,,,,Sledgehammers were used in the attack.,0.0,0.0,0.0,0.0,0.0,0.0,1,3.0,Minor (likely < $1 million),-99.0,Windows and doors of a house were damaged.,0.0,,,,,,,,,,,,,,,,There is doubt that this incident meets terrorism-related criteria. A source suspected that the attack may have been related to drug crime.,"""'No definitive motive' for house attacks,"" BBC, January 3, 2019.","""Arson attack on west Belfast house latest in a series of incidents,"" Irish Examiner, January 3, 2019.","""Police Chief Appeals For Information Over...,"" BelfastDaily.co.uk, January 3, 2019.",START Primary Collection,0,0,1,1,"201812310034, 201901010044"
